Pin ID,_ - note,Attribution,Board ID,URL,Board Name,Saves,Comments,Link Title,_ - metadata - link - site_name,_ - metadata - link - description,Place Name,Street,Region,Country,Locality,Latitude,Longitude,Source URL,Postal Code,Attribution URL,Attribution Title,Attribution Author URL,Attribution Author Name
1.23638E+17,De Nachtwacht. Rembrandt van Rijn.,,1.23638E+17,https://www.pinterest.com/ansjejoanna/rijksmuseum-amsterdam/,Rijksmuseum Amsterdam,0,0,,,,,,,,,,,,,,,,
1.23638E+17,Joao Lauro Fonte,,1.23638E+17,https://www.pinterest.com/ansjejoanna/rijksmuseum-amsterdam/,Rijksmuseum Amsterdam,0,0,Fun Illustrations by Joao Lauro Fonte,abduzeedo.com,"Jo√£o Lauro Fonte is a Brazilian graphic artist currently based in London. His portfolio is filled with fun, playful, and colorful illustrations all with an undeniable level of wit and humor, of course...my favorite!  Swing on over to his portfolio for more and let me know what you think via twitter.",,,,,,,,,,,,,
1.23638E+17,Rembrandt van Rijn - An old woman sleeping 1635,,1.23638E+17,https://www.pinterest.com/ansjejoanna/rijksmuseum-amsterdam/,Rijksmuseum Amsterdam,0,0,,,,,,,,,,,,,,,,
1.23638E+17,"Rembrandt Harmensz van Rijn - Saskia, 1633",,1.23638E+17,https://www.pinterest.com/ansjejoanna/rijksmuseum-amsterdam/,Rijksmuseum Amsterdam,0,0,,,,,,,,,,,,,,,,
1.23638E+17,"Twee kinderen spelend aan het Noordzeestrand, anoniem, 1907 - 1930",,1.23638E+17,https://www.pinterest.com/ansjejoanna/rijksmuseum-amsterdam/,Rijksmuseum Amsterdam,1,0,,,,,,,,,,,,,,,,
1.23638E+17,"Masker, Mitsunaga",,1.23638E+17,https://www.pinterest.com/ansjejoanna/rijksmuseum-amsterdam/,Rijksmuseum Amsterdam,0,0,,,,,,,,,,,,,,,,
1.23638E+17,Rijksmuseum Garden Gate Amsterdam photo by Domestic Empress by design,,1.23638E+17,https://www.pinterest.com/ansjejoanna/rijksmuseum-amsterdam/,Rijksmuseum Amsterdam,0,0,,,,,,,,,,,,,,,,
1.23638E+17,"fantastic Photo from The Rijksmuseum Amsterdam, Rijksgebouwendienst",,1.23638E+17,https://www.pinterest.com/ansjejoanna/rijksmuseum-amsterdam/,Rijksmuseum Amsterdam,0,0,,,,,,,,,,,,,,,,
1.23638E+17,Het Nieuwe Rijksmuseum Foto's van Eran Oppenheimer,,1.23638E+17,https://www.pinterest.com/ansjejoanna/rijksmuseum-amsterdam/,Rijksmuseum Amsterdam,0,0,,,,,,,,,,,,,,,,
1.23638E+17,Rijksmuseum,,1.23638E+17,https://www.pinterest.com/ansjejoanna/rijksmuseum-amsterdam/,Rijksmuseum Amsterdam,0,0,,,,,,,,,,,,,,,,
1.23638E+17,Rijksmuseum Amsterdam,,1.23638E+17,https://www.pinterest.com/ansjejoanna/rijksmuseum-amsterdam/,Rijksmuseum Amsterdam,2,0,,,,,,,,,,,,,,,,
1.23638E+17,Greenhouse @ Rijksmuseum,,1.23638E+17,https://www.pinterest.com/ansjejoanna/rijksmuseum-amsterdam/,Rijksmuseum Amsterdam,0,0,,,,,,,,,,,,,,,,
1.23638E+17,Greenhouse @ Rijksmuseum,,1.23638E+17,https://www.pinterest.com/ansjejoanna/rijksmuseum-amsterdam/,Rijksmuseum Amsterdam,0,0,,,,,,,,,,,,,,,,
1.23638E+17,Rijksmuseum 13 april 2013,,1.23638E+17,https://www.pinterest.com/ansjejoanna/rijksmuseum-amsterdam/,Rijksmuseum Amsterdam,0,0,,,,,,,,,,,,,,,,
1.23638E+17,"Opening Rijksmuseum, Amsterdam! #proud",,1.23638E+17,https://www.pinterest.com/ansjejoanna/rijksmuseum-amsterdam/,Rijksmuseum Amsterdam,0,0,,,,,,,,,,,,,,,,
1.23638E+17,20th c gallery exhibit of an early airplane,,1.23638E+17,https://www.pinterest.com/ansjejoanna/rijksmuseum-amsterdam/,Rijksmuseum Amsterdam,2,0,,,,,,,,,,,,,,,,
1.23638E+17,The other entrance with 19th c. sculptures,,1.23638E+17,https://www.pinterest.com/ansjejoanna/rijksmuseum-amsterdam/,Rijksmuseum Amsterdam,0,0,,,,,,,,,,,,,,,,
1.23638E+17,Rijksmuseum Nachtwacht,,1.23638E+17,https://www.pinterest.com/ansjejoanna/rijksmuseum-amsterdam/,Rijksmuseum Amsterdam,0,0,,,,,,,,,,,,,,,,
1.23638E+17,.,,1.23638E+17,https://www.pinterest.com/ansjejoanna/rijksmuseum-amsterdam/,Rijksmuseum Amsterdam,0,0,,,,,,,,,,,,,,,,
1.23638E+17,Ere galerij,,1.23638E+17,https://www.pinterest.com/ansjejoanna/rijksmuseum-amsterdam/,Rijksmuseum Amsterdam,0,0,,,,,,,,,,,,,,,,
1.23638E+17,.,,1.23638E+17,https://www.pinterest.com/ansjejoanna/rijksmuseum-amsterdam/,Rijksmuseum Amsterdam,0,0,,,,,,,,,,,,,,,,
1.23638E+17,Gebouw,,1.23638E+17,https://www.pinterest.com/ansjejoanna/rijksmuseum-amsterdam/,Rijksmuseum Amsterdam,0,0,,,,,,,,,,,,,,,,
1.23638E+17,"Fietstunnel Rijksmuseum, Amsterdam, The Netherlands",,1.23638E+17,https://www.pinterest.com/ansjejoanna/rijksmuseum-amsterdam/,Rijksmuseum Amsterdam,0,0,,,,Rijksmuseum,Museumstraat 1,Noord-Holland,Nederland,Amsterdam,52.36007765,4.885158329,https://foursquare.com/v/rijksmuseum/4a270706f964a520bd8c1fe3,1071 XX,,,,
1.23638E+17,Rijks Museum Library,,1.23638E+17,https://www.pinterest.com/ansjejoanna/rijksmuseum-amsterdam/,Rijksmuseum Amsterdam,1,0,,,,,,,,,,,,,,,,
1.23638E+17,Mutsjes van walvisvaarders in RIJKS,,1.23638E+17,https://www.pinterest.com/ansjejoanna/rijksmuseum-amsterdam/,Rijksmuseum Amsterdam,0,0,,,,,,,,,,,,,,,,
5.4951E+17,"De geschiedenis van het Rijksmuseum van Oudheden komt vanaf 14 november 2017 tot leven in een wervelende lichtshow op de Egyptische tempel in de centrale hal van het museum. Het vier minuten durende spektakel is voortaan dagelijks te zien om 11.30 uur, 13.30 uur (in het Engels) en 15.30 uur.",,5.4951E+17,https://www.pinterest.com/rijksmuseumvano/het-rijksmuseum-van-oudheden/,Het Rijksmuseum van Oudheden,2,0,,,,,,,,,,,,,,,,
5.4951E+17,"De geschiedenis van het Rijksmuseum van Oudheden komt vanaf 14 november 2017 tot leven in een wervelende lichtshow op de Egyptische tempel in de centrale hal van het museum. Het vier minuten durende spektakel is voortaan dagelijks te zien om 11.30 uur, 13.30 uur (in het Engels) en 15.30 uur.",,5.4951E+17,https://www.pinterest.com/rijksmuseumvano/het-rijksmuseum-van-oudheden/,Het Rijksmuseum van Oudheden,2,0,,,,,,,,,,,,,,,,
5.4951E+17,"De geschiedenis van het Rijksmuseum van Oudheden komt vanaf 14 november 2017 tot leven in een wervelende lichtshow op de Egyptische tempel in de centrale hal van het museum. Het vier minuten durende spektakel is voortaan dagelijks te zien om 11.30 uur, 13.30 uur (in het Engels) en 15.30 uur.",,5.4951E+17,https://www.pinterest.com/rijksmuseumvano/het-rijksmuseum-van-oudheden/,Het Rijksmuseum van Oudheden,1,0,,,,,,,,,,,,,http://www.youtube.com/watch?v=N9ibQrz5GtU,Lichtshow op de tempel,https://www.youtube.com/channel/UCRcj1iPxymiuCrifor5c3IQ,Rijksmuseum van Oudheden
5.4951E+17,"Afdeling Archeologie van Nederland, RMO",,5.4951E+17,https://www.pinterest.com/rijksmuseumvano/het-rijksmuseum-van-oudheden/,Het Rijksmuseum van Oudheden,0,0,,,,,,,,,,,,,,,,
5.4951E+17,"Griekse beeldenzaal, RMO",,5.4951E+17,https://www.pinterest.com/rijksmuseumvano/het-rijksmuseum-van-oudheden/,Het Rijksmuseum van Oudheden,1,0,,,,,,,,,,,,,,,,
5.4951E+17,Beeldenzaal in de nieuwe opstelling van de afdeling Egypte.,,5.4951E+17,https://www.pinterest.com/rijksmuseumvano/het-rijksmuseum-van-oudheden/,Het Rijksmuseum van Oudheden,0,0,,,,,,,,,,,,,,,,
5.4951E+17,"Terwijl de tentoonstelling ‚ÄòKlassieke wereld‚Äô steeds meer vorm krijgt, wordt elders in het museum gebouw hard doorgewerkt aan de verbouwing van de omloop op de eerste verdieping. Op de omloop is alles gestript, en worden leidingen, muren, vloerverwarming, balken en nog ontelbare andere zaken gestuct, gelegd, vervangen. Dit is de volledig gestripte zaal waar voorheen tentoonstellingen als 'IJstijd' en 'Petra Revisited' (van Gerti Bierenbroodspot) hebben gestaan.",,5.4951E+17,https://www.pinterest.com/rijksmuseumvano/het-rijksmuseum-van-oudheden/,Het Rijksmuseum van Oudheden,0,0,,,,,,,,,,,,,,,,
5.4951E+17,"Terwijl de tentoonstelling ‚ÄòKlassieke wereld‚Äô steeds meer vorm krijgt, wordt elders in het museum gebouw hard doorgewerkt aan het opknappen van de Tempelzaal. De Tempelzaal is alweer bijna terug in oude staat. Alle steigers zijn weg en de houten beschermingsjas van de tempel is weggehaald.",,5.4951E+17,https://www.pinterest.com/rijksmuseumvano/het-rijksmuseum-van-oudheden/,Het Rijksmuseum van Oudheden,0,0,,,,,,,,,,,,,,,,
5.4951E+17,"Our big Greek grave amphora was carefully put in its new place in the new exposition hall. Placing such an extraordinary object isn‚Äôt easy, as you can see on the picture. From 15 December on you can view the restored amphora in the new exhibition ‚ÄòClassical World‚Äô. Click the image for more information!",,5.4951E+17,https://www.pinterest.com/rijksmuseumvano/het-rijksmuseum-van-oudheden/,Het Rijksmuseum van Oudheden,0,0,,,,,,,,,,,,,,,,
5.4951E+17,"De openingsdatum komt snel dichterbij! Na alle voorbereidingen en restauraties zijn we nu daadwerkelijk de tentoonstellingszalen aan het inrichten. Voor de restauratoren betekent dat heel precies werk: de objecten moeten stevig en veilig gemonteerd worden, maar natuurlijk ook op een zo mooi mogelijke manier. Hoe dat in z'n werk gaat lees je in de nieuwste restauratieblog. Klik op de afbeelding om naar de blog te gaan!",,5.4951E+17,https://www.pinterest.com/rijksmuseumvano/het-rijksmuseum-van-oudheden/,Het Rijksmuseum van Oudheden,0,0,,,,,,,,,,,,,,,,
5.4951E+17,"Gratis lesmateriaal Egypte, van Rijksmuseum Leiden",,5.4951E+17,https://www.pinterest.com/rijksmuseumvano/het-rijksmuseum-van-oudheden/,Het Rijksmuseum van Oudheden,0,0,,,,,,,,,,,,,,,,
5.4951E+17,"Over precies zes weken gaan we weer (gedeeltelijk) open! Dit prachtige beeld van de Griekse bosgod Pan siert de nieuwe tentoonstelling over de Klassieke wereld. Pan, zoon van Hermes en de nimf Penelope, is de god van het woud en patroon van de herders en hun kudden. Wil je meer weten over dit beeld? Klik van even op de afbeelding.",,5.4951E+17,https://www.pinterest.com/rijksmuseumvano/het-rijksmuseum-van-oudheden/,Het Rijksmuseum van Oudheden,1,0,,,,,,,,,,,,,,,,
5.4951E+17,"Medio december gaan we weer open! Nog lang niet alle zalen zijn dan toegankelijk, maar w√©l de nieuwe vaste tentoonstelling 'Klassieke wereld'. Inclusief het vernieuwde en afgestofte columbarium, een Romeinse urnen-muur. Wil je meer weten over de vaste tentoonstelling 'Klassieke Wereld'? Klik dan even op de afbeelding.",,5.4951E+17,https://www.pinterest.com/rijksmuseumvano/het-rijksmuseum-van-oudheden/,Het Rijksmuseum van Oudheden,0,0,,,,,,,,,,,,,,,,
5.4951E+17,Tijdens de verbouwing van het museum is de Museumshop tijdelijk gevestigd in een winkelpand in de Leidse binnenstad. Vanaf zondag 31 mei a.s. bent u van harte welkom in de pop-up Museumshop aan de Nieuwe Rijn 26.,,5.4951E+17,https://www.pinterest.com/rijksmuseumvano/het-rijksmuseum-van-oudheden/,Het Rijksmuseum van Oudheden,1,0,,,,Leiden,,Zuid-Holland,Nederland,,52.16143305,4.488625733,https://foursquare.com/v/leiden/4b660236f964a520110e2be3,,,,,
5.4951E+17,Rijksmuseum van Oudheden (RMO) aan het Rapenburg. Dit prachtige museum heeft naast een vaste collectie ook steeds een interessante tijdelijke collectie.  Museum for old artifacts at the Rapenburg www.rmo.nl,,5.4951E+17,https://www.pinterest.com/rijksmuseumvano/het-rijksmuseum-van-oudheden/,Het Rijksmuseum van Oudheden,0,0,,,,Leiden,,Zuid-Holland,Nederland,,52.16143305,4.488625733,https://foursquare.com/v/leiden/4b660236f964a520110e2be3,,,,,
5.4951E+17,Rijksmuseum van Oudheden in Leiden,,5.4951E+17,https://www.pinterest.com/rijksmuseumvano/het-rijksmuseum-van-oudheden/,Het Rijksmuseum van Oudheden,2,0,,,,Rijksmuseum van Oudheden,Rapenburg 28,Zuid-Holland,Nederland,Leiden,52.15852281,4.48572674,https://foursquare.com/v/rijksmuseum-van-oudheden/4ae04107f964a5205e7e21e3,2311 EW,,,,
5.4951E+17,Het museum van Oudheden in Leiden.,,5.4951E+17,https://www.pinterest.com/rijksmuseumvano/het-rijksmuseum-van-oudheden/,Het Rijksmuseum van Oudheden,3,0,,,,,,,,,,,,,,,,
5.4951E+17,Trappenhuis Rijksmuseum van Oudheden rond 1900.,,5.4951E+17,https://www.pinterest.com/rijksmuseumvano/het-rijksmuseum-van-oudheden/,Het Rijksmuseum van Oudheden,2,0,,,,,,,,,,,,,,,,
5.4951E+17,Museumgevel aan het Rapenburg in Leiden,,5.4951E+17,https://www.pinterest.com/rijksmuseumvano/het-rijksmuseum-van-oudheden/,Het Rijksmuseum van Oudheden,1,0,,,,,,,,,,,,,,,,
4.80056E+17,Vintage Botanical Flower Images Collage Sheet,,4.80056E+17,https://www.pinterest.com/femkefeeling/rijksmuseum-bloemen/,Rijksmuseum bloemen,0,0,Vintage Botanical Flower Images  Collage Sheet,Paper Rose Cottage,"Vintage Botanical Flower Images¬† 16¬†¬†images on a sheet Can be used for any art project, altered art, decoupage, jewelry etc Professionally printed on medium wei",,,,,,,,,,,,,
4.80056E+17,FREE Printable Vintage Flower Images - these would be nice to print on vintage book pages.,,4.80056E+17,https://www.pinterest.com/femkefeeling/rijksmuseum-bloemen/,Rijksmuseum bloemen,0,0,50 Favorite Free Vintage Flower Images! - The Graphics Fairy,The Graphics Fairy,"We have 50 favorite free vintage flower images for you today! With spring just around the corner, I wanted to focus on some of my favorite flower images.",,,,,,,,,,,,,
4.80056E+17,Dark Moody Winter Florals | Apartment Therapy / Get started on liberating your interior design at Decoraid (decoraid.com),,4.80056E+17,https://www.pinterest.com/femkefeeling/rijksmuseum-bloemen/,Rijksmuseum bloemen,1,0,Dark Moody Winter Florals,Apartment Therapy,"If you recognized this post as a shameless excuse to show you a bunch of beautiful pictures, then you are absolutely correct",,,,,,,,,,,,,
4.80056E+17,Urban Jungle Bloggers: Plants & Flowers by @morganefrimane,,4.80056E+17,https://www.pinterest.com/femkefeeling/rijksmuseum-bloemen/,Rijksmuseum bloemen,1,0,Urban jungle bloggers / plants & flowers ‚Äî planB par Morganours,planB par Morganours,"Il y a plusieurs mois, lors de mes ateliers pour ma plante mon bonheur, j‚Äôai eu le plaisir de rencontrer..",,,,,,,,,,,,,
4.80056E+17,Fall Arrangement by Swallows & Damsons | Design*Sponge,,4.80056E+17,https://www.pinterest.com/femkefeeling/rijksmuseum-bloemen/,Rijksmuseum bloemen,0,0,,,,,,,,,,,,,,,,
4.80056E+17,Shop Tour: Swallows & Damsons | Design*Sponge,,4.80056E+17,https://www.pinterest.com/femkefeeling/rijksmuseum-bloemen/,Rijksmuseum bloemen,1,0,,,,,,,,,,,,,,,,
4.80056E+17,Fall Arrangement by Swallows & Damsons,,4.80056E+17,https://www.pinterest.com/femkefeeling/rijksmuseum-bloemen/,Rijksmuseum bloemen,0,0,,,,,,,,,,,,,,,,
4.80056E+17,moody 931266_10151857434295278_690013095_n swallows and damsons,,4.80056E+17,https://www.pinterest.com/femkefeeling/rijksmuseum-bloemen/,Rijksmuseum bloemen,0,0,,,,,,,,,,,,,,,,
4.80056E+17, ,,4.80056E+17,https://www.pinterest.com/femkefeeling/rijksmuseum-bloemen/,Rijksmuseum bloemen,0,0,"Our friends, the flora. | Jungalow",Jungalow,"Just a few of my latest portraits of my friends, the flora. Prints for dresses, ideas for wallpaper, color swatches‚Äìthese plants provide me with endless inspiration‚Ä¶Have a lovely weekend all! Photos by J. Blakeney",,,,,,,,,,,,,
4.80056E+17,moody florals,,4.80056E+17,https://www.pinterest.com/femkefeeling/rijksmuseum-bloemen/,Rijksmuseum bloemen,1,0,akachristiannaa,breath+will,fawndeviney: ‚Äú Fawn DeViney for Dogwood Floral ‚Äù,,,,,,,,,,,,,
4.80056E+17,via BKLYN contessa :: garden roses,,4.80056E+17,https://www.pinterest.com/femkefeeling/rijksmuseum-bloemen/,Rijksmuseum bloemen,1,0,,,,,,,,,,,,,,,,
4.80056E+17,Floral art.,,4.80056E+17,https://www.pinterest.com/femkefeeling/rijksmuseum-bloemen/,Rijksmuseum bloemen,0,0,thisivyhouse,Ì†ºÌºû This Ivy House Ì†ºÌºñ,rachael-of-rose: ‚Äú Photo by Meghan Kay Sadler // Twigss Floral Studio . ‚Äù,,,,,,,,,,,,,
4.80056E+17, ,,4.80056E+17,https://www.pinterest.com/femkefeeling/rijksmuseum-bloemen/,Rijksmuseum bloemen,0,0,,,,,,,,,,,,,,,,
4.80056E+17, ,,4.80056E+17,https://www.pinterest.com/femkefeeling/rijksmuseum-bloemen/,Rijksmuseum bloemen,0,0,Inspiration,Inspiration,personal,,,,,,,,,,,,,
4.80056E+17,Swallows and Damsons,,4.80056E+17,https://www.pinterest.com/femkefeeling/rijksmuseum-bloemen/,Rijksmuseum bloemen,0,0,,,,,,,,,,,,,,,,
4.80056E+17,Swallows and Damsons Wreath,,4.80056E+17,https://www.pinterest.com/femkefeeling/rijksmuseum-bloemen/,Rijksmuseum bloemen,1,0,,,,,,,,,,,,,,,,
4.84489E+17,"Zelfportret van /  self #portrait of  Ferdinand Bol, former apprentice of / voorheen leerling van #Rembrandt. 1653, #Rijksmuseum Amsterdam www.kukullus.nl",,4.84489E+17,https://www.pinterest.com/kukullus/rijksmuseum-amsterdam/,Rijksmuseum Amsterdam,0,0,,,,,,,,,,,,,,,,
4.84489E+17,"#Rembrandt als herder,  Rembrandt as a shepherd,  Govert #Flinck, 1636, #Rijksmuseum Amsterdam. www.kukullus.nl",,4.84489E+17,https://www.pinterest.com/kukullus/rijksmuseum-amsterdam/,Rijksmuseum Amsterdam,0,0,,,,,,,,,,,,,,,,
4.84489E+17,"Ferdinand Bol, Michiel de #Ruyter, #Rijksmuseum Amsterdam, 1667. www.kukullus.nl",,4.84489E+17,https://www.pinterest.com/kukullus/rijksmuseum-amsterdam/,Rijksmuseum Amsterdam,1,0,,,,,,,,,,,,,,,,
4.84489E+17,"Isaak zegent Jakob /  Isaac Blessing Jacob Govert Flinck, ca.1638, Rijksmuseum Amsterdam. www.kukullus.nl",,4.84489E+17,https://www.pinterest.com/kukullus/rijksmuseum-amsterdam/,Rijksmuseum Amsterdam,0,0,,,,,,,,,,,,,,,,
4.84489E+17,Achtiende eeuwse verzamelaarskast met miniatuurapotheek en curiosa in het #Rijksmuseum #Amsterdam. Ook ooit onderdeel van een speciale rondleiding van Kukullus met farmacie als onderwerp.  www.kukullus.nl,,4.84489E+17,https://www.pinterest.com/kukullus/rijksmuseum-amsterdam/,Rijksmuseum Amsterdam,0,0,,,,,,,,,,,,,,,,
4.84489E+17,Op we naar de hel. Detail van het Laatse Oordeel van Lucas van Leyden in het Rijksmuseum in Amsterdam. ‚Ä¢  Detail of the painting of the Last Judgment by Lucas van Leyden in the Rijksmuseum in Amsterdam. www.kukullus.nl,,4.84489E+17,https://www.pinterest.com/kukullus/rijksmuseum-amsterdam/,Rijksmuseum Amsterdam,0,0,Twitter,twitter.com,"‚ÄúSpecial treats during the guided tour  in the Rijksmuseum in Amsterdam. Don't miss them, book soon! https://t.co/mpawX6pcFD‚Äù",,,,,,,,,,,,,
4.84489E+17,"Frans Post, suikerfabriek in Brazili√´. Post toont hier hoe suiker gemaakt wordt, een belangrijk handelsproduct, dat de W.I.C. naar Nederland verscheepte. www.kukullus.nl",,4.84489E+17,https://www.pinterest.com/kukullus/rijksmuseum-amsterdam/,Rijksmuseum Amsterdam,0,0,,,,,,,,,,,,,,,,
4.84489E+17,Landschap in Brazili√´. Frans Post bleef ook na zijn terugkeer naar Nederland Braziliaanse motieven schilderen.  www.kukullus.nl,,4.84489E+17,https://www.pinterest.com/kukullus/rijksmuseum-amsterdam/,Rijksmuseum Amsterdam,0,0,,,,,,,,,,,,,,,,
4.84489E+17,"Zesbandgordeldier, tekening van Frans Post. Volgens Posts eigen opschrift op het blad, smaakt dit gordeldier naar kip. Hij zal dus ook een keer geproefd hebben. www.kukullus.nl",,4.84489E+17,https://www.pinterest.com/kukullus/rijksmuseum-amsterdam/,Rijksmuseum Amsterdam,0,0,,,,,,,,,,,,,,,,
4.84489E+17,"The Last Judgement by the Dutch renaissance artist Lucas van Leyden, ""special guest"" in the Rijksmuseum Amsterdam.  www.kukullus.nl",,4.84489E+17,https://www.pinterest.com/kukullus/rijksmuseum-amsterdam/,Rijksmuseum Amsterdam,0,0,,,,,,,,,,,,,,,,
4.84489E+17,"#Rijksmuseum #Amsterdam, Gallery of Honour. Book your private museum tour on www.kukullus.nl",,4.84489E+17,https://www.pinterest.com/kukullus/rijksmuseum-amsterdam/,Rijksmuseum Amsterdam,3,0,,,,,,,,,,,,,,,,
4.84489E+17,"Jean-√âtienne Liotard, 'Dutch girl at breakfast', ca. 1755-1757, Rijksmuseum Amsterdam. www.kukullus.nl",,4.84489E+17,https://www.pinterest.com/kukullus/rijksmuseum-amsterdam/,Rijksmuseum Amsterdam,0,0,,,,,,,,,,,,,,,,
4.84489E+17,"The ""Meagre Company"" by Frans Hals and Pieter Codde, under investigation in the Gallery of Honour of the Rijksmuseum Amsterdam. www.kukullus.nl",,4.84489E+17,https://www.pinterest.com/kukullus/rijksmuseum-amsterdam/,Rijksmuseum Amsterdam,1,0,,,,,,,,,,,,,,,,
4.84489E+17,"Isn't this a real treat for the eye? Look at all the different, elaborately carved faces in this Last Supper by an anonymous artist, on show in the Rijksmuseum in Amsterdam. Why limit yourself to visiting the ""usual suspects"" of the Golden Age in the Rijksmuseum? Why not book a museum tour on medieval & Renaissance art: http://www.kukullus.nl/index.php/en/guided-museum-tour/guided-museum-tour-rijksmuseum-amsterdam/265-guided-tour-medieval-and-renaissance-art-rijksmuseum-amsterdam",,4.84489E+17,https://www.pinterest.com/kukullus/rijksmuseum-amsterdam/,Rijksmuseum Amsterdam,1,0,Kukullus (@_Kukullus_) on Twitter,twitter.com,"The latest Tweets from Kukullus (@_Kukullus_). City tour, museum tour F√ºhrungen rondleidingen Amsterdam Utrecht stadswandeling Kunstgeschichte kunstgeschiedenis art history.Impressum:  http://t.co/oC9y5YEpvj",,,,,,,,,,,,,
4.84489E+17,"Zittende man, twee studies van Adriaen van de Velde in rood krijt uit het Amsterdam Museum. Een bewijs dat hij niet alleen de weergave van het landschap beheerste maar ook veel aandacht aan het menselijk figuur besteedde.  www.kukullus.nl",,4.84489E+17,https://www.pinterest.com/kukullus/rijksmuseum-amsterdam/,Rijksmuseum Amsterdam,0,0,,,,,,,,,,,,,,,,
4.84489E+17,"Het Straatje van Johannes #Vermeer (1658) in het #Rijksmuseum in #Amsterdam. - Vermeer, Little Street.  www.kukullus.nl",,4.84489E+17,https://www.pinterest.com/kukullus/rijksmuseum-amsterdam/,Rijksmuseum Amsterdam,2,0,,,,,,,,,,,,,,,,
4.84489E+17,"Jozef #Isra√´ls, Kinderen aan zee / Kinder am Meer / Children at the sea, #Rijksmuseum #Amsterdam (Detail), 1872. www.kukullus.nl",,4.84489E+17,https://www.pinterest.com/kukullus/rijksmuseum-amsterdam/,Rijksmuseum Amsterdam,2,0,Twitter,twitter.com,‚ÄúGoede voornemens voor een nieuwe maand augustus: meer cultuur snuiven. Hier een paar idee√´n: https://t.co/Y9jwKzMV7M‚Äù,,,,,,,,,,,,,
4.84489E+17,"Boerderij met dode boom, schilderij van Adriaen van de Velde uit de National Gallery in London. Nu te zien in het Rijksmuseum Amsterdam  www.kukullus.nl",,4.84489E+17,https://www.pinterest.com/kukullus/rijksmuseum-amsterdam/,Rijksmuseum Amsterdam,0,0,Kukullus (@_Kukullus_) on Twitter,twitter.com,"The latest Tweets from Kukullus (@_Kukullus_). City tour, museum tour F√ºhrungen rondleidingen Amsterdam Utrecht stadswandeling Kunstgeschichte kunstgeschiedenis art history.Impressum:  http://t.co/oC9y5YEpvj",,,,,,,,,,,,,
4.84489E+17,"Als ik ooit een bibliotheek heb met een eigen ingang van de straat, dan wil ik oog zo‚Äôn leuk #timpaan boven de deur. Oude ingang van de #bibliotheek  van het #Rijksmuseum in Amsterdam, gelegen aan de westzijde in het #park.  Should I ever own a library with a separate street entrance, I also want a beautiful #tympanum like this one above the old #entrance to the Rijksmuseum #library in #Amsterdam. Located on the west side of the #museumbuilding; you can see it from the #museumgardens.  Wenn ...",,4.84489E+17,https://www.pinterest.com/kukullus/rijksmuseum-amsterdam/,Rijksmuseum Amsterdam,0,0,Claudia Schipper (@kukullus) ‚Ä¢ Instagram photos and videos,instagram.com,"206 Followers, 319 Following, 80 Posts - See Instagram photos and videos from Claudia Schipper (@kukullus)",,,,,,,,,,,,,
4.84489E+17,"Jan van Scorel schilderde deze Maria Magsalena, die hier sprekend lijkt op een Venetiaanse courtisane (ca. 1530). www.kukullus.nl",,4.84489E+17,https://www.pinterest.com/kukullus/rijksmuseum-amsterdam/,Rijksmuseum Amsterdam,1,0,,,,,,,,,,,,,,,,
4.84489E+17,"Deze bewening van Christus is van de hand van Arnt van Zwolle, die ook bekend is onder de namen Arnt Beeldensnijder en Arnt von Kalkar. www.kukullus.nl",,4.84489E+17,https://www.pinterest.com/kukullus/rijksmuseum-amsterdam/,Rijksmuseum Amsterdam,0,0,,,,,,,,,,,,,,,,
4.84489E+17,"Veel aandacht voor details in deze aanbidding der koningen door Geertgen tot Sint Jans (toegeschreven), ca. 1480 - ca. 1485. #Rijksmuseum #Amsterdam  www.kukullus.nl",,4.84489E+17,https://www.pinterest.com/kukullus/rijksmuseum-amsterdam/,Rijksmuseum Amsterdam,0,0,,,,,,,,,,,,,,,,
4.84489E+17,"Detail uit het vroegst bekende schilderij dat een landschap in America voorstelt. De schilder Jan Jansz Mostaert was hiervoor wel op zijn fantasie aangewezen, zelf is hij de oceaan niet overgestoken. www.kukullus.nl",,4.84489E+17,https://www.pinterest.com/kukullus/rijksmuseum-amsterdam/,Rijksmuseum Amsterdam,0,0,,,,,,,,,,,,,,,,
4.84489E+17,"Op dit schilderij van de 7 werken van barmhartigheid, geschilderd door de Meester van Alkmaar in 1504, zijn ondanks restauratie nog duidelijke sporen te zien van de vernielingen die de beeldestorm toegebracht heeft. www.kukullus.nl",,4.84489E+17,https://www.pinterest.com/kukullus/rijksmuseum-amsterdam/,Rijksmuseum Amsterdam,2,0,,,,,,,,,,,,,,,,
4.84489E+17,"Laatste avondmaal op een huisaltaar van albast, gemaakt in Mechelen. Te bewonderen bij een rondleiding in het Rijksmuseum. www.kukullus.nl",,4.84489E+17,https://www.pinterest.com/kukullus/rijksmuseum-amsterdam/,Rijksmuseum Amsterdam,1,0,Sign up,twitter.com,"From breaking news and entertainment to sports and politics, get the full story with all the live commentary.",,,,,,,,,,,,,
1.8324E+17,Rijks,,1.8324E+17,https://www.pinterest.com/marliesvdr/rijksmuseum/,Rijksmuseum,1,0,,,,,,,,,,,,,,,,
1.8324E+17,Rubens,,1.8324E+17,https://www.pinterest.com/marliesvdr/rijksmuseum/,Rijksmuseum,1,0,,,,,,,,,,,,,,,,
1.8324E+17,.,,1.8324E+17,https://www.pinterest.com/marliesvdr/rijksmuseum/,Rijksmuseum,1,0,,,,,,,,,,,,,,,,
1.8324E+17,.,,1.8324E+17,https://www.pinterest.com/marliesvdr/rijksmuseum/,Rijksmuseum,1,0,,,,,,,,,,,,,,,,
1.8324E+17,.,,1.8324E+17,https://www.pinterest.com/marliesvdr/rijksmuseum/,Rijksmuseum,1,0,,,,,,,,,,,,,,,,
1.8324E+17,.,,1.8324E+17,https://www.pinterest.com/marliesvdr/rijksmuseum/,Rijksmuseum,0,0,,,,,,,,,,,,,,,,
1.8324E+17,.,,1.8324E+17,https://www.pinterest.com/marliesvdr/rijksmuseum/,Rijksmuseum,0,0,,,,,,,,,,,,,,,,
1.8324E+17,.,,1.8324E+17,https://www.pinterest.com/marliesvdr/rijksmuseum/,Rijksmuseum,0,0,,,,,,,,,,,,,,,,
1.8324E+17,.,,1.8324E+17,https://www.pinterest.com/marliesvdr/rijksmuseum/,Rijksmuseum,0,0,,,,,,,,,,,,,,,,
1.8324E+17,.,,1.8324E+17,https://www.pinterest.com/marliesvdr/rijksmuseum/,Rijksmuseum,0,0,,,,,,,,,,,,,,,,
1.8324E+17,.,,1.8324E+17,https://www.pinterest.com/marliesvdr/rijksmuseum/,Rijksmuseum,0,0,,,,,,,,,,,,,,,,
1.8324E+17,.,,1.8324E+17,https://www.pinterest.com/marliesvdr/rijksmuseum/,Rijksmuseum,0,0,,,,,,,,,,,,,,,,
1.8324E+17,Detail Allegory on the Abdication of Emperor Charles V in Brussels by Frans Francken (1630-1640),,1.8324E+17,https://www.pinterest.com/marliesvdr/rijksmuseum/,Rijksmuseum,1,0,,,,,,,,,,,,,,,,
1.8324E+17,Still Life with Flowers by Balthasar van der Ast (1625-1630),,1.8324E+17,https://www.pinterest.com/marliesvdr/rijksmuseum/,Rijksmuseum,2,0,,,,,,,,,,,,,,,,
1.8324E+17,Still Life with a Vase of Flowers and Dead Frog by Jacob Marrel(1634),,1.8324E+17,https://www.pinterest.com/marliesvdr/rijksmuseum/,Rijksmuseum,4,0,,,,,,,,,,,,,,,,
1.8324E+17,Detail Allegory on the Abdication of Emperor Charles V in Brussels by Frans Francken (1630-1640),,1.8324E+17,https://www.pinterest.com/marliesvdr/rijksmuseum/,Rijksmuseum,2,0,,,,,,,,,,,,,,,,
1.8324E+17,Detail,,1.8324E+17,https://www.pinterest.com/marliesvdr/rijksmuseum/,Rijksmuseum,0,0,,,,,,,,,,,,,,,,
1.8324E+17,Detail,,1.8324E+17,https://www.pinterest.com/marliesvdr/rijksmuseum/,Rijksmuseum,1,0,,,,,,,,,,,,,,,,
4.16584E+16,Google Afbeeldingen resultaat voor http://www.slightlylucid.com/wp-content/uploads/2008/10/willem_claesz_heda.jpg,,4.16584E+16,https://www.pinterest.com/hanna1977/rijksmuseum/,Rijksmuseum,1,0,,,,,,,,,,,,,,,,
4.16584E+16,"Stilleven, Adriaen van Utrecht, 1644",,4.16584E+16,https://www.pinterest.com/hanna1977/rijksmuseum/,Rijksmuseum,10,0,,,,,,,,,,,,,,,,
4.16584E+16,Giovanni Boldini:  Detail of Corner of Painter‚Äôs Table (1890),,4.16584E+16,https://www.pinterest.com/hanna1977/rijksmuseum/,Rijksmuseum,0,0,nancyrivers,All The Things Nancy Loves,peira: ‚Äú worldpaintings: Giovanni Boldini: Detail of Corner of Painter‚Äôs Table (1890) ‚Äù,,,,,,,,,,,,,
4.16584E+16,Barramundi Clams,,4.16584E+16,https://www.pinterest.com/hanna1977/rijksmuseum/,Rijksmuseum,1,0,,,,,,,,,,,,,,,,
4.16584E+16,Peter from Souvlaki For The Soul,,4.16584E+16,https://www.pinterest.com/hanna1977/rijksmuseum/,Rijksmuseum,0,0,Baked Lime Cheesecake with a Fig Salsa - Souvlaki For The Soul,Souvlaki For The Soul,"Take a baked lime cheesecake to your next gathering. And if you want to enhance it a little, add some poached figs. Watch it disappear in no time.",,,,,,,,,,,,,
4.16584E+16,Alexandr Sennikov,,4.16584E+16,https://www.pinterest.com/hanna1977/rijksmuseum/,Rijksmuseum,1,0,,,,,,,,,,,,,,,,
4.16584E+16,Repin Via: Bowerbird by Sibella Court,,4.16584E+16,https://www.pinterest.com/hanna1977/rijksmuseum/,Rijksmuseum,0,0,,,,,,,,,,,,,,,,
4.16584E+16,"Stilleven met kalkoenpastei, Pieter Claesz., 1627",,4.16584E+16,https://www.pinterest.com/hanna1977/rijksmuseum/,Rijksmuseum,4,0,,,,,,,,,,,,,,,,
4.16584E+16,Alessi | studiopepe,,4.16584E+16,https://www.pinterest.com/hanna1977/rijksmuseum/,Rijksmuseum,0,0,Welcome,Studiopepe.,Studiopepe is a design agency founded in Milan in 2006 by Arianna Lelli  Mami and Chiara Di Pinto. The agency takes a visionary and  multidisciplinary approach to design.,,,,,,,,,,,,,
4.16584E+16,Alessi | studiopepe,,4.16584E+16,https://www.pinterest.com/hanna1977/rijksmuseum/,Rijksmuseum,2,0,Welcome,Studiopepe.,Studiopepe is a design agency founded in Milan in 2006 by Arianna Lelli  Mami and Chiara Di Pinto. The agency takes a visionary and  multidisciplinary approach to design.,,,,,,,,,,,,,
4.16584E+16,kopkoffie‚ÄîMirella Sahetapy,,4.16584E+16,https://www.pinterest.com/hanna1977/rijksmuseum/,Rijksmuseum,1,0,,,,,,,,,,,,,,,,
4.16584E+16,wandschilderij‚ÄîMirella Sahetapy,,4.16584E+16,https://www.pinterest.com/hanna1977/rijksmuseum/,Rijksmuseum,0,0,,,,,,,,,,,,,,,,
4.16584E+16,Art Department | 2012,,4.16584E+16,https://www.pinterest.com/hanna1977/rijksmuseum/,Rijksmuseum,0,0,,,,,,,,,,,,,,,,
4.16584E+16,Dirk Vanhaeren: VAN KOPJE KOFFIE NAAR GWYN HANSSEN PIGOTT EN GIORGIO MORANDI,,4.16584E+16,https://www.pinterest.com/hanna1977/rijksmuseum/,Rijksmuseum,10,0,,,,,,,,,,,,,,,,
4.16584E+16,"Giorgio Morandi Still Life 1946, oil on canvas, 21 x 24 inches, London, Tate.  not in exhibition. reproduced from Resistance and Memory, p.9 ¬© Giorgio Morandi by SIAE 2008",,4.16584E+16,https://www.pinterest.com/hanna1977/rijksmuseum/,Rijksmuseum,2,0,,,,,,,,,,,,,,,,
4.16584E+16,Katya de Grunwald ‚Äî Photographer,,4.16584E+16,https://www.pinterest.com/hanna1977/rijksmuseum/,Rijksmuseum,1,0,,,,,,,,,,,,,,,,
4.16584E+16,Isager-CPHFood -6,,4.16584E+16,https://www.pinterest.com/hanna1977/rijksmuseum/,Rijksmuseum,1,0,,,,,,,,,,,,,,,,
4.16584E+16,fashion still life,,4.16584E+16,https://www.pinterest.com/hanna1977/rijksmuseum/,Rijksmuseum,0,0,,,,,,,,,,,,,,,,
4.16584E+16, ,,4.16584E+16,https://www.pinterest.com/hanna1977/rijksmuseum/,Rijksmuseum,1,0,,,,,,,,,,,,,,,,
4.16584E+16,‚ú≠,,4.16584E+16,https://www.pinterest.com/hanna1977/rijksmuseum/,Rijksmuseum,0,0,Welcome,Studiopepe.,Studiopepe is a design agency founded in Milan in 2006 by Arianna Lelli  Mami and Chiara Di Pinto. The agency takes a visionary and  multidisciplinary approach to design.,,,,,,,,,,,,,
4.16584E+16, ,,4.16584E+16,https://www.pinterest.com/hanna1977/rijksmuseum/,Rijksmuseum,0,0,,,,,,,,,,,,,,,,
4.16584E+16,Hans Blomquist - Stylists - Agent Bauer,,4.16584E+16,https://www.pinterest.com/hanna1977/rijksmuseum/,Rijksmuseum,0,0,,,,,,,,,,,,,,,,
4.16584E+16,Camilla Krishnaswamy - Stylists - Agent Bauer,,4.16584E+16,https://www.pinterest.com/hanna1977/rijksmuseum/,Rijksmuseum,0,0,,,,,,,,,,,,,,,,
4.16584E+16,Wonderful composition,,4.16584E+16,https://www.pinterest.com/hanna1977/rijksmuseum/,Rijksmuseum,0,0,Happy Mundane | Jonathan Lo,Happy Mundane | Jonathan Lo,Happy Mundane | Jonathan Lo,,,,,,,,,,,,,
4.16584E+16, ,,4.16584E+16,https://www.pinterest.com/hanna1977/rijksmuseum/,Rijksmuseum,1,0,,,,,,,,,,,,,,,,
4.67178E+17,‚ù§Ô∏èRijksmuseum‚ù§Ô∏è,,4.67178E+17,https://www.pinterest.com/monta52/art-rijksmuseum/,Art: Rijksmuseum,0,0,,,,,,,,,,,,,,,,
4.67178E+17,Roemer_1644_Rijksmuseum,,4.67178E+17,https://www.pinterest.com/monta52/art-rijksmuseum/,Art: Rijksmuseum,1,0,The Dutch Wine Glasses of Pieter Claesz,Hogshead - A Wine Blog,For this post I¬†decided to take a closer look at the wine glasses painted by Pieter Claesz.¬†¬†I have extracted 25 wine glasses from 21 different paintings.¬† These paintings span a 30 year period from 1623 to 1653.¬† I picked paintings from images¬†that¬†had reasonable resolution.¬†¬† I have rotated any wine glasses that were shown on their‚Ä¶,,,,,,,,,,,,,
4.67178E+17,"Maris, Jacob (1837-1899) - 1879 Girl at a Piano (Rijksmuseum, Amsterdam) by RasMarley, via Flickr",,4.67178E+17,https://www.pinterest.com/monta52/art-rijksmuseum/,Art: Rijksmuseum,0,0,"Maris, Jacob (1837-1899) - 1879 Girl at a Piano (Rijksmuseum, Amsterdam)",Flickr,"Jacob Maris was a Dutch painter, who with his brothers Willem and Matthijs belonged to what has come to be known as the Hague School of painters. He studied at the Antwerp Academy, and subsequently in Hubertus van Hove's studio during a stay in Paris from 1865 till 1871. Though he painted, especially in early life, domestic scenes and interiors invested with deeply sympathetic feeling, it is as a landscape painter that Maris excelled. He was the painter of bridges and windmills, of old quays, massive towers, and level banks; even more was he the painter of water, and misty skies, and chasing clouds. In all his works, whether in water or oil color, and in his etchings, the subject is always subordinate to the effect.  His art is suggestive rather than decorative, and his force does not seem to depend on any preconceived method, such as a synthetical treatment of form or gradations of tone. And yet, though his means appear so simple, the artist's mind seems to communicate with the spectator's by directness of pictorial instinct, and we have only to observe the admirable balance of composition and truthful perspective to understand the sure knowledge of his business that underlies such purely impressionist handling. "" No painter,"" says M. Philippe Zilcken, "" has so well expressed the ethereal effects, bathed in air and light through floating silvery mist, in which painters delight, and the characteristic remote horizons blurred by haze; or again, the grey yet luminous weather of Holland, unlike the dead grey rain of England or the heavy sky of Paris.""",,,,,,,,,,,,,
4.67178E+17,"Children at Play  Dutch Ceramic Tile   Rijksmuseum, Amsterdam",,4.67178E+17,https://www.pinterest.com/monta52/art-rijksmuseum/,Art: Rijksmuseum,0,0,,,,,,,,,,,,,,,,
4.67178E+17,Voorjaar - zeg het met bloemen - Rijksmuseum,,4.67178E+17,https://www.pinterest.com/monta52/art-rijksmuseum/,Art: Rijksmuseum,0,0,,,,,,,,,,,,,,,,
4.67178E+17,"Jan Lievens, Vanitasstilleven. 1620-1630, Rijksmuseum, Amsterdam, Nederland.",,4.67178E+17,https://www.pinterest.com/monta52/art-rijksmuseum/,Art: Rijksmuseum,0,0,,,,,,,,,,,,,,,,
4.67178E+17,"Van Gogh, Vincent (1853-1890) - 1885 A Peasant Woman in White Cap (Rijksmuseum, Netherlands)",,4.67178E+17,https://www.pinterest.com/monta52/art-rijksmuseum/,Art: Rijksmuseum,0,0,"Van Gogh, Vincent (1853-1890) - 1885 A Peasant Woman in White Cap (Rijksmuseum, Netherlands)",Flickr,"This painting could be characterized as ""expressionist"".  Considerably ahead of its time.  But that's not surprising considering the artist was Van Gogh.",,,,,,,,,,http://www.flickr.com/photos/32357038@N08/3278038752/,"Van Gogh, Vincent (1853-1890) - 1885 A Peasant Woman in White Cap (Rijksmuseum, Netherlands)",http://www.flickr.com/photos/32357038@N08/,RasMarley
4.67178E+17,Rijksmuseum,,4.67178E+17,https://www.pinterest.com/monta52/art-rijksmuseum/,Art: Rijksmuseum,0,0,,,,,,,,,,,,,,,,
4.67178E+17,"De profetes Anna (The Prophetess Anna), 1631 / Rembrandt van Rijn (1606-1669) / Rijksmuseum, Amsterdam, The Netherlands",,4.67178E+17,https://www.pinterest.com/monta52/art-rijksmuseum/,Art: Rijksmuseum,0,0,,,,,,,,,,,,,,,,
4.67178E+17,Rijksmuseum,,4.67178E+17,https://www.pinterest.com/monta52/art-rijksmuseum/,Art: Rijksmuseum,1,0,,,,,,,,,,,,,,,,
4.67178E+17,Rijksmuseum,,4.67178E+17,https://www.pinterest.com/monta52/art-rijksmuseum/,Art: Rijksmuseum,0,0,,,,,,,,,,,,,,,,
4.67178E+17,Hollandse Luchten - Rijksmuseum Amsterdam,,4.67178E+17,https://www.pinterest.com/monta52/art-rijksmuseum/,Art: Rijksmuseum,0,0,,,,,,,,,,,,,,,,
4.67178E+17,Drinking Glass - Rijksmuseum @Jacob McPherson Rabbie,,4.67178E+17,https://www.pinterest.com/monta52/art-rijksmuseum/,Art: Rijksmuseum,0,0,,,,,,,,,,,,,,,,
4.67178E+17,Rijksmuseum,,4.67178E+17,https://www.pinterest.com/monta52/art-rijksmuseum/,Art: Rijksmuseum,0,0,,,,,,,,,,,,,,,,
4.67178E+17,Rijksmuseum,,4.67178E+17,https://www.pinterest.com/monta52/art-rijksmuseum/,Art: Rijksmuseum,0,0,,,,,,,,,,,,,,,,
4.67178E+17,rijksmuseum,,4.67178E+17,https://www.pinterest.com/monta52/art-rijksmuseum/,Art: Rijksmuseum,0,0,,,,,,,,,,,,,,,,
4.67178E+17,Rijksmuseum,,4.67178E+17,https://www.pinterest.com/monta52/art-rijksmuseum/,Art: Rijksmuseum,0,0,,,,,,,,,,,,,,,,
4.67178E+17,a big swan Canvas Prints for sale in lowest price online by canvaschamp in USA. you can order for your choice of canvas prints online only in $14.94. Free shipping. 100% guarantee for all canvas prints products quality and customer satisfaction.,,4.67178E+17,https://www.pinterest.com/monta52/art-rijksmuseum/,Art: Rijksmuseum,0,0,,,,,,,,,,,,,,,,
4.67178E+17,Rijksmuseum,,4.67178E+17,https://www.pinterest.com/monta52/art-rijksmuseum/,Art: Rijksmuseum,0,0,,,,,,,,,,,,,,,,
4.67178E+17,Rijksmuseum,,4.67178E+17,https://www.pinterest.com/monta52/art-rijksmuseum/,Art: Rijksmuseum,0,0,,,,,,,,,,,,,,,,
4.67178E+17,Rijksmuseum,,4.67178E+17,https://www.pinterest.com/monta52/art-rijksmuseum/,Art: Rijksmuseum,0,0,,,,,,,,,,,,,,,,
4.67178E+17,Vermeer,,4.67178E+17,https://www.pinterest.com/monta52/art-rijksmuseum/,Art: Rijksmuseum,0,0,,,,,,,,,,,,,,,,
4.67178E+17,"Johannes Vermeer  Het Melkmeisje 1660 - Rijksmuseum, Amsterdam",,4.67178E+17,https://www.pinterest.com/monta52/art-rijksmuseum/,Art: Rijksmuseum,0,0,,,,,,,,,,,,,,,,
4.67178E+17,Beeldentuin Rijksmuseum. Henri Moore.,,4.67178E+17,https://www.pinterest.com/monta52/art-rijksmuseum/,Art: Rijksmuseum,0,0,,,,,,,,,,,,,,,,
4.67178E+17,"ceramic violin from fa√Øence, anonimus, 1705 .. In the Rijksmuseum, Amsterdam",,4.67178E+17,https://www.pinterest.com/monta52/art-rijksmuseum/,Art: Rijksmuseum,0,0,delft violin,images.search.yahoo.com,,,,,,,,,,,,,,
5.54787E+17,"Vene di pietra, tra i rami (2015), Giuseppe Penone.",,5.54787E+17,https://www.pinterest.com/bepjes71/rijksmuseum-amsterdam/,Rijksmuseum | Amsterdam,0,0,,,,,,,,,,,,,,,,
5.54787E+17,"Willem I (1772-1843), koning der Nederlanden door Paelinck, Joseph, 1819, Rijksmuseum",,5.54787E+17,https://www.pinterest.com/bepjes71/rijksmuseum-amsterdam/,Rijksmuseum | Amsterdam,0,0,my-ear-trumpet,My Ear-Trumpet Has Been Struck By Lightning,"centuriespast: ‚Äú Willem I (1772-1843), koning der Nederlanden Creator: ‚Ä¢ Vervaardiger: Paelinck, Joseph Date of creation:1819 Rijksmuseum ‚Äù",,,,,,,,,,,,,
5.54787E+17,"Charles Howard Hodges, Portret van Lodewijk Napoleon, Rijksmuseum",,5.54787E+17,https://www.pinterest.com/bepjes71/rijksmuseum-amsterdam/,Rijksmuseum | Amsterdam,0,0,,,,,,,,,,,,,,,,
5.54787E+17,"Emperor Napoleon I door Fran√ßois Pascal Simon G√©rard, Rijksmuseum",,5.54787E+17,https://www.pinterest.com/bepjes71/rijksmuseum-amsterdam/,Rijksmuseum | Amsterdam,0,0,,,,,,,,,,,,,,,,
5.54787E+17,"George Hendrik Breitner, Vrouw in Japanse kimono, 1895/1896",,5.54787E+17,https://www.pinterest.com/bepjes71/rijksmuseum-amsterdam/,Rijksmuseum | Amsterdam,0,0,,,,,,,,,,,,,,,,
5.54787E+17,"George Hendrik Breitner, Voor de spiegel, ca. 1893-1894",,5.54787E+17,https://www.pinterest.com/bepjes71/rijksmuseum-amsterdam/,Rijksmuseum | Amsterdam,1,0,,,,,,,,,,,,,,,,
5.54787E+17,"Achterzijde Rijksmuseum met affice Breitner, 25 februari 2016",,5.54787E+17,https://www.pinterest.com/bepjes71/rijksmuseum-amsterdam/,Rijksmuseum | Amsterdam,0,0,,,,,,,,,,,,,,,,
5.54787E+17,Portaal aan achterzijde Rijksmuseum,,5.54787E+17,https://www.pinterest.com/bepjes71/rijksmuseum-amsterdam/,Rijksmuseum | Amsterdam,0,0,,,,,,,,,,,,,,,,
5.54787E+17,Rijksmuseum Amsterdam,,5.54787E+17,https://www.pinterest.com/bepjes71/rijksmuseum-amsterdam/,Rijksmuseum | Amsterdam,0,0,,,,,,,,,,,,,,,,
5.54787E+17,Rijksmuseum Amsterdam,,5.54787E+17,https://www.pinterest.com/bepjes71/rijksmuseum-amsterdam/,Rijksmuseum | Amsterdam,0,0,,,,,,,,,,,,,,,,
5.54787E+17,20th Century Gallery. Photo: Iwan Baan.,,5.54787E+17,https://www.pinterest.com/bepjes71/rijksmuseum-amsterdam/,Rijksmuseum | Amsterdam,0,0,,,,,,,,,,,,,,,,
5.54787E+17,"18th Century Gallery, 2013. Photo: Iwan Baan",,5.54787E+17,https://www.pinterest.com/bepjes71/rijksmuseum-amsterdam/,Rijksmuseum | Amsterdam,0,0,,,,,,,,,,,,,,,,
5.54787E+17,Gallery the Young Rembrandt - photo by Iwan Baan,,5.54787E+17,https://www.pinterest.com/bepjes71/rijksmuseum-amsterdam/,Rijksmuseum | Amsterdam,0,0,,,,Rijksmuseum,Museumstraat 1,Noord-Holland,Nederland,Amsterdam,52.36007765,4.885158329,https://foursquare.com/v/rijksmuseum/4a270706f964a520bd8c1fe3,1071 XX,,,,
5.54787E+17,"Klaverbloemen, Jac van Looij, 1890 - 1922",,5.54787E+17,https://www.pinterest.com/bepjes71/rijksmuseum-amsterdam/,Rijksmuseum | Amsterdam,0,0,,,,,,,,,,,,,,,,
5.54787E+17,Tulpenvaas in het Restaurant van het Rijksmuseum,,5.54787E+17,https://www.pinterest.com/bepjes71/rijksmuseum-amsterdam/,Rijksmuseum | Amsterdam,0,0,,,,,,,,,,,,,,,,
5.54787E+17,Rijksmuseum Amsterdam,,5.54787E+17,https://www.pinterest.com/bepjes71/rijksmuseum-amsterdam/,Rijksmuseum | Amsterdam,0,0,,,,,,,,,,,,,,,,
5.54787E+17,Rijksmuseum Amsterdam,,5.54787E+17,https://www.pinterest.com/bepjes71/rijksmuseum-amsterdam/,Rijksmuseum | Amsterdam,0,0,,,,,,,,,,,,,,,,
5.54787E+17,"Koning Willem II door Jan Adam Kruseman, Rijksmuseum Amsterdam",,5.54787E+17,https://www.pinterest.com/bepjes71/rijksmuseum-amsterdam/,Rijksmuseum | Amsterdam,0,0,,,,,,,,,,,,,,,,
5.54787E+17,"Michiel de Ruyter door Ferdinand Bol, Rijksmuseum Amsterdam",,5.54787E+17,https://www.pinterest.com/bepjes71/rijksmuseum-amsterdam/,Rijksmuseum | Amsterdam,0,0,,,,,,,,,,,,,,,,
5.54787E+17,Rijksmuseum Amsterdam,,5.54787E+17,https://www.pinterest.com/bepjes71/rijksmuseum-amsterdam/,Rijksmuseum | Amsterdam,0,0,,,,,,,,,,,,,,,,
5.54787E+17,Sterrenbeeld Vissen in de mozaiekvloer in de voorhal in het Rijksmuseum,,5.54787E+17,https://www.pinterest.com/bepjes71/rijksmuseum-amsterdam/,Rijksmuseum | Amsterdam,0,0,,,,,,,,,,,,,,,,
5.54787E+17,Hekken fietstunnel Rijksmuseum,,5.54787E+17,https://www.pinterest.com/bepjes71/rijksmuseum-amsterdam/,Rijksmuseum | Amsterdam,0,0,,,,,,,,,,,,,,,,
5.54787E+17,Fietstunnel Rijksmuseum Amsterdam,,5.54787E+17,https://www.pinterest.com/bepjes71/rijksmuseum-amsterdam/,Rijksmuseum | Amsterdam,0,0,,,,,,,,,,,,,,,,
5.54787E+17,Delfts Blauw - Rijksmuseum Amsterdam,,5.54787E+17,https://www.pinterest.com/bepjes71/rijksmuseum-amsterdam/,Rijksmuseum | Amsterdam,0,0,,,,,,,,,,,,,,,,
5.54787E+17,"'Meisje in Kimono' Breitner, Rijksmuseum",,5.54787E+17,https://www.pinterest.com/bepjes71/rijksmuseum-amsterdam/,Rijksmuseum | Amsterdam,0,0,,,,,,,,,,,,,,,,
3.50859E+17,"Michiel Jansz. van Mierevelt, Portrait of Jacob Cats, 1639 - Rijksmuseum Amsterdam",,3.50859E+17,https://www.pinterest.com/dolypop2001/rijksmuseum-amsterdam/,Rijksmuseum. Amsterdam,1,0,,,,,,,,,,,,,,,,
3.50859E+17,Portrait of a Surinamese Girl ca.1810 Rijksmuseum,,3.50859E+17,https://www.pinterest.com/dolypop2001/rijksmuseum-amsterdam/,Rijksmuseum. Amsterdam,0,0,,,,,,,,,,,,,,,,
3.50859E+17,"Arrival of the Boats, Jacob Maris, 1884. Rijksmuseum",,3.50859E+17,https://www.pinterest.com/dolypop2001/rijksmuseum-amsterdam/,Rijksmuseum. Amsterdam,1,0,,,,,,,,,,,,,,,,
3.50859E+17,Church Interior   Johannes Vermeer,,3.50859E+17,https://www.pinterest.com/dolypop2001/rijksmuseum-amsterdam/,Rijksmuseum. Amsterdam,1,0,,,,,,,,,,,,,,,,
3.50859E+17,"""The Woman in Blue Reading a Letter,"" (1663-1664). Johannes Vermeer (1632-1675). Rijksmuseum, Amsterdam.",,3.50859E+17,https://www.pinterest.com/dolypop2001/rijksmuseum-amsterdam/,Rijksmuseum. Amsterdam,2,0,,,,,,,,,,,,,,,,
3.50859E+17,"Portrait of Feyntje van Steenkiste  (Frans Hals, 1635, Rijksmuseum, Amsterdam)",,3.50859E+17,https://www.pinterest.com/dolypop2001/rijksmuseum-amsterdam/,Rijksmuseum. Amsterdam,0,0,,,,,,,,,,,,,,,,
3.50859E+17,"Isaac Israels - Procession in the Old Catholic Church to the Hague; Rijksmuseum Amsterdam, Netherlands; 1881",,3.50859E+17,https://www.pinterest.com/dolypop2001/rijksmuseum-amsterdam/,Rijksmuseum. Amsterdam,0,0,My Ear-Trumpet Has Been Struck By Lightning : Photo,my-ear-trumpet.tumblr.com,"Post anything (from anywhere!), customize everything, and find and follow what you love. Create your own Tumblr blog today.",,,,,,,,,,,,,
3.50859E+17,"Anonymous, Portrait of Cornelia Cornelisdr van Esch, 1632 - Rijksmuseum Amsterdam",,3.50859E+17,https://www.pinterest.com/dolypop2001/rijksmuseum-amsterdam/,Rijksmuseum. Amsterdam,2,0,,,,,,,,,,,,,,,,
3.50859E+17,"Artist Frans Pourbus the Elder (1545‚Äì1581) Description Dutch: Portret van een ridder in de orde van Calatrava, vermoedelijk van het geslacht Sorias of Soreau (Sorel) Date 16th century Medium painting Current location (Inventory)Rijksmuseum Amsterdam",,3.50859E+17,https://www.pinterest.com/dolypop2001/rijksmuseum-amsterdam/,Rijksmuseum. Amsterdam,0,0,,,,,,,,,,,,,,,,
3.50859E+17,Rijksmuseum Amsterdam,,3.50859E+17,https://www.pinterest.com/dolypop2001/rijksmuseum-amsterdam/,Rijksmuseum. Amsterdam,5,0,,,,Rijksmuseum,Museumstraat 1,Noord-Holland,Nederland,Amsterdam,52.36007765,4.885158329,https://foursquare.com/v/rijksmuseum/4a270706f964a520bd8c1fe3,1071 XX,,,,
3.50859E+17,"Adriaen Coorte | Drie perziken op een stenen plint, ca. 1705, Rijksmuseum, Amsterdam",,3.50859E+17,https://www.pinterest.com/dolypop2001/rijksmuseum-amsterdam/,Rijksmuseum. Amsterdam,1,0,,,,,,,,,,,,,,,,
3.50859E+17,"Rembrandt (1606-1669)  Portrait of Johannes Wtenbogaert (1557¬≠1644), Remonstrant Minister  Oil on canvas  1633  103 x 130 cm  (3' 4.55"" x 4' 3.18"")  Rijksmuseum (Amsterdam, Netherlands)",,3.50859E+17,https://www.pinterest.com/dolypop2001/rijksmuseum-amsterdam/,Rijksmuseum. Amsterdam,1,0,,,,,,,,,,,,,,,,
3.50859E+17,"beardbriarandrose:    √âmile Bernard (French, 1868-1941)  Self-portrait  1897. Oil on canvas. Rijksmuseum, Amsterdam.",,3.50859E+17,https://www.pinterest.com/dolypop2001/rijksmuseum-amsterdam/,Rijksmuseum. Amsterdam,4,0,monsieurlabette,monsieur labette,"beardbriarandrose: ‚Äú √âmile Bernard (French, 1868-1941) Self-portrait 1897. Oil on canvas. Rijksmuseum, Amsterdam. ‚Äù",,,,,,,,,,,,,
3.50859E+17,"Hendrik Spilman, Selfportrait with his wife Sanneke van Bommel and their two children - Rijksmuseum Amsterdam",,3.50859E+17,https://www.pinterest.com/dolypop2001/rijksmuseum-amsterdam/,Rijksmuseum. Amsterdam,0,0,,,,,,,,,,,,,,,,
3.50859E+17,"Lucas Vorsterman by Anthony van Dyck (c. 1620, Rijksmuseum)",,3.50859E+17,https://www.pinterest.com/dolypop2001/rijksmuseum-amsterdam/,Rijksmuseum. Amsterdam,0,0,,,,,,,,,,,,,,,,
3.50859E+17,"Voogd was known as the Dutch Claude, after the French painter Claude Lorrain, who was famous for his historical landscapes bathed in a golden glow. Voogd depicted the garden at Villa Borghese in Rome late in the afternoon: the sun casts long shadows and the trees stand out starkly against the sky. People are promenading, enjoying the wonderful sunset. In the foreground, an artist sits, leaning against a tree, sketching. Hendrik Voogd, 1807. #Rijksmuseum",,3.50859E+17,https://www.pinterest.com/dolypop2001/rijksmuseum-amsterdam/,Rijksmuseum. Amsterdam,0,0,,,,,,,,,,,,,,,,
3.50859E+17,"Crab. Rijksmuseum, Public Domain",,3.50859E+17,https://www.pinterest.com/dolypop2001/rijksmuseum-amsterdam/,Rijksmuseum. Amsterdam,0,0,,,,,,,,,,,,,,,,
3.50859E+17,"Portrait of the De Moucheron family, detail, by Cornelis de Zeeuw, 1563; Rijksmuseum, Amsterdam.",,3.50859E+17,https://www.pinterest.com/dolypop2001/rijksmuseum-amsterdam/,Rijksmuseum. Amsterdam,1,0,,,,,,,,,,,,,,,,
3.50859E+17,"Lucien Gaillard, horn and silver hair comb, Paris, ca. 1902-06 Rijksmuseum",,3.50859E+17,https://www.pinterest.com/dolypop2001/rijksmuseum-amsterdam/,Rijksmuseum. Amsterdam,0,0,heaveninawildflower,Heaveninawildflower,"arsvitaest: ‚Äú Lucien Gaillard, horn and silver hair comb, Paris, ca. 1902-06 Rijksmuseum ‚Äù",,,,,,,,,,,,,
3.50859E+17,"Thomas Gainsborough, Wooded Landscape with Shepherd Resting in a Sunny Path and Sheep, c.1746, Rijksmuseum Twenthe, Netherlands",,3.50859E+17,https://www.pinterest.com/dolypop2001/rijksmuseum-amsterdam/,Rijksmuseum. Amsterdam,0,0,Blueboy's Journey with Art,thisblueboy.tumblr.com,Disclaimer: This site is dedicated mostly to visual arts i.e. classical paintings and others. Most...,,,,,,,,,,,,,
3.50859E+17,"Anon (formerly attributed to Giovanni Battista Moroni), Portrait of a Nobleman in Armour, 1540-1560, Amsterdam, Rijksmuseum",,3.50859E+17,https://www.pinterest.com/dolypop2001/rijksmuseum-amsterdam/,Rijksmuseum. Amsterdam,0,0,,,,,,,,,,,,,,,,
3.50859E+17,"WESEL, Adriaen van  Netherlandish sculptor (b. ca. 1417, Utrecht, d. 1499, Utrecht)  Joseph with Musician Angels  1475-77  Oak, height 45 cm  Rijksmuseum, Amsterdam",,3.50859E+17,https://www.pinterest.com/dolypop2001/rijksmuseum-amsterdam/,Rijksmuseum. Amsterdam,0,0,,,,,,,,,,,,,,,,
3.50859E+17,"Rembrandt (1606-1669) The Prophetess Anna (known as 'Rembrandt's Mother') Oil on panel 1631 48 x 60 cm (18.9"" x 23.62"") Rijksmuseum (Amsterdam, Netherlands)",,3.50859E+17,https://www.pinterest.com/dolypop2001/rijksmuseum-amsterdam/,Rijksmuseum. Amsterdam,0,0,,,,,,,,,,,,,,,,
3.50859E+17,"The Duet (1850). Charles van Beveren (Belgian, 1809-1850). Oil on panel. Rijksmuseum Amsterdam. Van Beveren studied art at the academy in Mechlin and at Antwerp. He settled in Amsterdam in 1830, subsequently visiting Paris, Rome, and other cities of Italy, and distinguished himself as a painter of history, genre, and portraits.",,3.50859E+17,https://www.pinterest.com/dolypop2001/rijksmuseum-amsterdam/,Rijksmuseum. Amsterdam,2,0,Books and Art,books0977.tumblr.com,"Books, Art of art: literature, music, dance, visual arts",,,,,,,,,,,,,
3.50859E+17,"Rembrandt (1606-1669)  Titus van Rijn in a Monk's Habit  Oil on canvas  1660  67.5 x 79.5 cm  (26.57"" x 31.3"")  Rijksmuseum (Amsterdam, Netherlands)",,3.50859E+17,https://www.pinterest.com/dolypop2001/rijksmuseum-amsterdam/,Rijksmuseum. Amsterdam,0,0,,,,,,,,,,,,,,,,
5.64498E+17,Rembrandt Lighting Study with an Old Man as a Model.jpg,,5.64498E+17,https://www.pinterest.com/petrakuif/rijksmuseum/,Rijksmuseum,0,0,,,,,,,,,,,,,,,,
5.64498E+17, ,,5.64498E+17,https://www.pinterest.com/petrakuif/rijksmuseum/,Rijksmuseum,0,0,,,,,,,,,,,,,,,,
5.64498E+17,s-media-cache-ak0.pinimg.com originals 55 35 30 553530f315aa20457a5f1488ebb14a7b.jpg,,5.64498E+17,https://www.pinterest.com/petrakuif/rijksmuseum/,Rijksmuseum,2,0,,,,,,,,,,,,,,,,
5.64498E+17, ,,5.64498E+17,https://www.pinterest.com/petrakuif/rijksmuseum/,Rijksmuseum,8,0,,,,,,,,,,,,,,,,
5.64498E+17,"REMBRANDT van Rijn, Dutch (1606-1669)_Portrait of a Rabbi, 1645, The Leiden Collection",,5.64498E+17,https://www.pinterest.com/petrakuif/rijksmuseum/,Rijksmuseum,0,0,,,,,,,,,,,,,,,,
5.64498E+17,Hendrik Johannes Havermans 1857-1928. Moeder leert kind breien 1898.,,5.64498E+17,https://www.pinterest.com/petrakuif/rijksmuseum/,Rijksmuseum,0,0,,,,,,,,,,,,,,,,
5.64498E+17,"Rembrandt Harmensz. van Rijn (1606‚Äì1669), Portrait of Nicolaes Ruts, 1631, oil on mahogany panel, 46 x 34 3/8 inches, The Frick Collection, New York.",,5.64498E+17,https://www.pinterest.com/petrakuif/rijksmuseum/,Rijksmuseum,0,0,,,,,,,,,,,,,,,,
5.64498E+17,"Rembrandt, Terugkeer van de verloren zoon.",,5.64498E+17,https://www.pinterest.com/petrakuif/rijksmuseum/,Rijksmuseum,0,0,,,,,,,,,,,,,,,,
5.64498E+17,"Gerrit Dou: dienstmeid met olielampje. ca. 1660-1670. De Lakenhal, Leiden / Mauritshuis, Den Haag.",,5.64498E+17,https://www.pinterest.com/petrakuif/rijksmuseum/,Rijksmuseum,5,0,,,,,,,,,,,,,,,,
5.64498E+17,"um 1653/1654, K√ºnstler:Cornelis Sustermans, , Schloss Ambras Innsbruck",,5.64498E+17,https://www.pinterest.com/petrakuif/rijksmuseum/,Rijksmuseum,0,0,,,,,,,,,,,,,,,,
5.64498E+17, ,,5.64498E+17,https://www.pinterest.com/petrakuif/rijksmuseum/,Rijksmuseum,4,0,,,,,,,,,,,,,,,,
5.64498E+17,Rijksmuseum,,5.64498E+17,https://www.pinterest.com/petrakuif/rijksmuseum/,Rijksmuseum,1,0,,,,,,,,,,,,,,,,
5.64498E+17,Rembrandt Harmensz. van Rijn: Jozef wordt beschuldigd door Potifars vrouw,,5.64498E+17,https://www.pinterest.com/petrakuif/rijksmuseum/,Rijksmuseum,0,0,,,,,,,,,,,,,,,,
5.64498E+17,"Gerrit Dou: tandarts bij kaarslicht. ca. 1663-1665. Kimbell Art Museum, Fort Worth. Dou laat zijn grote vaardigheid zien in de stilleven-objecten, de lichtval en de emoties op het gezicht van de lijdende pati√´nt en de bezorgde toeschouwer, waarschijnlijk zijn vrouw. Ook voegt Dou humor toe. Als de angstige, pati√´nt met open mond zijn ogen naar boven richt ziet hij een krokodil met scherpe tanden boven hem hangen. Vignet van kapper-chirurgijnen.",,5.64498E+17,https://www.pinterest.com/petrakuif/rijksmuseum/,Rijksmuseum,0,0,,,,,,,,,,,,,,,,
5.64498E+17,"Straatgezicht te Den Haag, Floris Arntzenius, ca. 1874 - in of voor 1925",,5.64498E+17,https://www.pinterest.com/petrakuif/rijksmuseum/,Rijksmuseum,0,0,,,,,,,,,,,,,,,,
5.64498E+17,"Van de Velde the Younger at Work (c.1665). Michiel van Musscher (Dutch, 1645-1705). Oil on panel. Vienna, Liechtenstein Museum. Willem Van de Velde received a number of commissions for English and...",,5.64498E+17,https://www.pinterest.com/petrakuif/rijksmuseum/,Rijksmuseum,1,0,books0977,Books and Art,"Van de Velde the Younger at Work (c.1665). Michiel van Musscher (Dutch, 1645-1705). Oil on panel. Vienna, Liechtenstein Museum. Willem Van de Velde received a number of commissions for English and...",,,,,,,,,,,,,
5.64498E+17,"Pierre Edouard Fr√®re (1819 ‚Äì 1886, French)",,5.64498E+17,https://www.pinterest.com/petrakuif/rijksmuseum/,Rijksmuseum,0,0,"Pierre Edouard Fr√®re (1819 ‚Äì 1886, French)",I AM A CHILD,(Part I) Going To School La glissade The Young Knitter La tricoteuse La petite cuisini√®re The Young Cook Le repas du matin Le repas du soir Les jeunes jardiniers The Evening Prayer Washing Day Jour de la lessive Feeding Time Jeux de gar√ßons √† la rivi√®re En jouant √† la poup√©e On The Way To‚Ä¶,,,,,,,,,,,,,
5.64498E+17,"Bernardus Johannes Blommers, Dutch 1845 - 1914 - The return of mother",,5.64498E+17,https://www.pinterest.com/petrakuif/rijksmuseum/,Rijksmuseum,0,0,,,,,,,,,,,,,,,,
5.64498E+17,"Young Woman at Her Toilet - Jean Alphonse Roehn (1799-1864) Huile sur toile. 61 x 50,2 cm",,5.64498E+17,https://www.pinterest.com/petrakuif/rijksmuseum/,Rijksmuseum,0,0,,,,,,,,,,,,,,,,
5.64498E+17,* Willem Van De Velde (De Jonge) - - - The Surrender of the Royal Prince (detail),,5.64498E+17,https://www.pinterest.com/petrakuif/rijksmuseum/,Rijksmuseum,1,0,,,,,,,,,,,,,,,,
5.64498E+17,Life and Paintings of David Teniers the Younger (1610 ‚Äì 1690),,5.64498E+17,https://www.pinterest.com/petrakuif/rijksmuseum/,Rijksmuseum,0,0,,,,,,,,,,,,,,,,
5.64498E+17,Gerrit Dou,,5.64498E+17,https://www.pinterest.com/petrakuif/rijksmuseum/,Rijksmuseum,1,0,,,,,,,,,,,,,,,,
5.64498E+17,"PEHR HILLESTR√ñM, ""En som pl√•ckar f√•gel"". Otydligt signerad Hillestr√∂m p√• kistan. Utf√∂rd omkring 1776.",,5.64498E+17,https://www.pinterest.com/petrakuif/rijksmuseum/,Rijksmuseum,0,0,,,,,,,,,,,,,,,,
5.64498E+17,Adolf von Becker (1831-1909) Mallina olon j√§lkeen / after being a model 1880 - Finland,,5.64498E+17,https://www.pinterest.com/petrakuif/rijksmuseum/,Rijksmuseum,0,0,,,,,,,,,,,,,,,,
5.64498E+17,"Cornelis de Man, ‚ÄòInterior with a Woman Sweeping‚Äô (1666)",,5.64498E+17,https://www.pinterest.com/petrakuif/rijksmuseum/,Rijksmuseum,1,0,dutch-and-flemish-painters,Dutch Painters,"womenandcats: ‚Äú Cornelis de Man, ‚ÄòInterior with a Woman Sweeping‚Äô (1666) ‚Äù Cornelis de Man (Delft, 1 July 1621 ‚Äì Delft, 1 September 1706) was a Dutch Golden Age painter.",,,,,,,,,,,,,
3.3974E+17,"Shop Window, Isaac Israels, 1894",,3.3974E+17,https://www.pinterest.com/janvanderhoorn/rijksmuseum/,Rijksmuseum,1,0,,,,,,,,,,,,,,,,
3.3974E+17,"Jonge vrouw, uitkijkend over zee, Isaac Israels, c. 1895 - c. 1900",,3.3974E+17,https://www.pinterest.com/janvanderhoorn/rijksmuseum/,Rijksmuseum,1,0,,,,,,,,,,,,,,,,
3.3974E+17,"In het Bois de Boulogne bij Parijs, Isaac Israels, 1875 - 1919",,3.3974E+17,https://www.pinterest.com/janvanderhoorn/rijksmuseum/,Rijksmuseum,2,0,,,,,,,,,,,,,,,,
3.3974E+17,"Modistenatelier, Isaac Israels, 1875 - 1919",,3.3974E+17,https://www.pinterest.com/janvanderhoorn/rijksmuseum/,Rijksmuseum,2,0,,,,,,,,,,,,,,,,
3.3974E+17,"De trommelaarster, Isaac Israels, c. 1890 - c. 1910",,3.3974E+17,https://www.pinterest.com/janvanderhoorn/rijksmuseum/,Rijksmuseum,0,0,,,,,,,,,,,,,,,,
3.3974E+17,"Landschap met boerderij bij een plas, Johan Hendrik Weissenbruch, 1870 - 1903",,3.3974E+17,https://www.pinterest.com/janvanderhoorn/rijksmuseum/,Rijksmuseum,3,0,,,,,,,,,,,,,,,,
3.3974E+17,"On the Heath near Laren, Anton Mauve, 1887",,3.3974E+17,https://www.pinterest.com/janvanderhoorn/rijksmuseum/,Rijksmuseum,1,0,,,,,,,,,,,,,,,,
3.3974E+17,"De moestuin, Anton Mauve, ca. 1885 - ca. 1888",,3.3974E+17,https://www.pinterest.com/janvanderhoorn/rijksmuseum/,Rijksmuseum,1,0,,,,,,,,,,,,,,,,
3.3974E+17,"Gezicht op een stad, Jacob Maris, 1847 - 1899",,3.3974E+17,https://www.pinterest.com/janvanderhoorn/rijksmuseum/,Rijksmuseum,2,0,,,,,,,,,,,,,,,,
3.3974E+17,"Gezicht op de Turfmarkt met de Eendjespoort te Haarlem, Johan Hendrik Weissenbruch, 1834 - 1903. #Rijksmuseum",,3.3974E+17,https://www.pinterest.com/janvanderhoorn/rijksmuseum/,Rijksmuseum,0,0,,,,,,,,,,,,,,,,
3.3974E+17,"Landschap in de omgeving van Den Haag, Willem Roelofs (I), ca. 1870 - ca. 1875.",,3.3974E+17,https://www.pinterest.com/janvanderhoorn/rijksmuseum/,Rijksmuseum,0,0,,,,,,,,,,,,,,,,
3.3974E+17,"‚ÄòOur country is colourful, juicy, fat. (...) I repeat, our country is not dull, not even in dull weather, the dunes are not dull either‚Äô, Constant Gabri√´l wrote in a letter. Unlike many artists of the Hague School, he preferred painting fine summer days. Here there are two: the grass, sky and windmill are all reflected in the water. Paul Joseph Constantin Gabri√´l, ca. 1889.",,3.3974E+17,https://www.pinterest.com/janvanderhoorn/rijksmuseum/,Rijksmuseum,0,0,,,,,,,,,,,,,,,,
3.3974E+17,"Een wetering bij Abcoude, Paul Joseph Constantin Gabri√´l, 1878",,3.3974E+17,https://www.pinterest.com/janvanderhoorn/rijksmuseum/,Rijksmuseum,2,0,,,,,,,,,,,,,,,,
3.3974E+17,"De Zuiderhavendijk in Enkhuizen, Cornelis Springer, 1868",,3.3974E+17,https://www.pinterest.com/janvanderhoorn/rijksmuseum/,Rijksmuseum,0,0,,,,,,,,,,,,,,,,
3.3974E+17,"Gezicht op de Gouden Bocht in de Herengracht vanuit het oosten, Gerrit Adriaensz. Berckheyde, 1685",,3.3974E+17,https://www.pinterest.com/janvanderhoorn/rijksmuseum/,Rijksmuseum,1,0,,,,,,,,,,,,,,,,
3.3974E+17,"Hoog water in het weiland, Geo Poggenbeek, 1863 - 1903",,3.3974E+17,https://www.pinterest.com/janvanderhoorn/rijksmuseum/,Rijksmuseum,0,0,,,,,,,,,,,,,,,,
3.3974E+17,"Amsterdam household maidsAmsterdamse dienstmeisjes, Isaac Israels, ca. 1890 - ca. 1900",,3.3974E+17,https://www.pinterest.com/janvanderhoorn/rijksmuseum/,Rijksmuseum,2,0,,,,,,,,,,,,,,,,
3.3974E+17,"De melkbocht, Anton Mauve, 1870 - 1888",,3.3974E+17,https://www.pinterest.com/janvanderhoorn/rijksmuseum/,Rijksmuseum,0,0,,,,,,,,,,,,,,,,
3.3974E+17,"Het melkuur, Jan van Gool, 1710 - 1763",,3.3974E+17,https://www.pinterest.com/janvanderhoorn/rijksmuseum/,Rijksmuseum,1,0,,,,,,,,,,,,,,,,
3.3974E+17,"Een bouwhoeve in Gelderland, Wouter Johannes van Troostwijk, 1805 - 1810",,3.3974E+17,https://www.pinterest.com/janvanderhoorn/rijksmuseum/,Rijksmuseum,0,0,,,,,,,,,,,,,,,,
3.3974E+17,"Koeien op stal, Jan Kobell (III), 1828 - 1830",,3.3974E+17,https://www.pinterest.com/janvanderhoorn/rijksmuseum/,Rijksmuseum,2,0,,,,,,,,,,,,,,,,
3.3974E+17,"Gezicht op Dordrecht, Aelbert Cuyp, 1630 - 1691",,3.3974E+17,https://www.pinterest.com/janvanderhoorn/rijksmuseum/,Rijksmuseum,0,0,,,,,,,,,,,,,,,,
3.3974E+17,"De kunstgalerij van Jan Gildemeester Jansz, Adriaan de Lelie, 1794 - 1795",,3.3974E+17,https://www.pinterest.com/janvanderhoorn/rijksmuseum/,Rijksmuseum,1,0,,,,,,,,,,,,,,,,
3.3974E+17,"Watermolen, Jacob Isaacksz. van Ruisdael, 1657 - 1659",,3.3974E+17,https://www.pinterest.com/janvanderhoorn/rijksmuseum/,Rijksmuseum,0,0,,,,,,,,,,,,,,,,
3.3974E+17,"Ruiters in de sneeuw in het Haagse Bos, Anton Mauve, 1880",,3.3974E+17,https://www.pinterest.com/janvanderhoorn/rijksmuseum/,Rijksmuseum,2,0,,,,,,,,,,,,,,,,
3.55081E+17,"Geertgen tot Sint Jans (Workshop) -  The Holy Kinship, circa 1495. Rijksmuseum.",,3.55081E+17,https://www.pinterest.com/dr_marceloguerr/museums-rijksmuseum-amsterdan/,"Museums: Rijksmuseum, Amsterdan",0,0,,,,,,,,,,,,,,,,
3.55081E+17,"Geertgen Tot Sint-Jans (Workshop) - The Holy Kinship (detail), circa 1495. Rijksmuseum.",,3.55081E+17,https://www.pinterest.com/dr_marceloguerr/museums-rijksmuseum-amsterdan/,"Museums: Rijksmuseum, Amsterdan",0,0,,,,,,,,,,,,,,,,
3.55081E+17,"Nicolaas Braeu | Vulcanus, Nicolaas Braeu, Karel van Mander (I), 1598 | Een beeld van Vulcanus de god van het vuur in een nis geplaatst. Vulvcanus houdt een hamer en een tang in zijn handen. Naast hem staat een aambeeld. Voor het aambeeld zit een rat. Vulcanus is in deze serie de tegenhanger van de godin Minerva. Allebei zijn ze beschermer der ambachtslieden. Onder de voorstelling een Latijns vers.",,3.55081E+17,https://www.pinterest.com/dr_marceloguerr/museums-rijksmuseum-amsterdan/,"Museums: Rijksmuseum, Amsterdan",0,0,,,,,,,,,,,,,,,,
3.55081E+17,"Self Portrait of Giambologna, plaster, 1600. Rijksmuseum, Amsterdam  #TuscanyAgriturismoGiratola",,3.55081E+17,https://www.pinterest.com/dr_marceloguerr/museums-rijksmuseum-amsterdan/,"Museums: Rijksmuseum, Amsterdan",1,0,"Self Portrait of Giambologna, plaster, 1600. Rijksmuseum, Amsterdam",Flickr,Explore renzodionigi's photos on Flickr. renzodionigi has uploaded 30911 photos to Flickr.,,,,,,,,,,http://www.flickr.com/photos/renzodionigi/4143311119/,"Self Portrait of Giambologna, plaster, 1600. Rijksmuseum, Amsterdam",http://www.flickr.com/photos/renzodionigi/,renzodionigi
3.55081E+17,"Karel van Mander (I) | De tongenslijpers, 1705, Karel van Mander (I), 1592 | De tongenslijpers, 1705. In een werkplaats worden tongen die dik en zwart zijn van het liegen en kwaadspreken schoongeslepen. Rechts wordt een mand met tongen omgekieperd. Op een aambeeld vooraan een papentong getroffen door de zeven pijlen van de Republiek. Blad nr. 9 in de serie van 13 bladen met spotprenten op de jezu√Øeten getiteld Roma Pertubata, 1707. Onderdeel van het prentwerk uitgegeven onder de verzameltitel 't",,3.55081E+17,https://www.pinterest.com/dr_marceloguerr/museums-rijksmuseum-amsterdan/,"Museums: Rijksmuseum, Amsterdan",0,0,,,,,,,,,,,,,,,,
3.55081E+17,"Karel van Mander (I) | Elk meent zijn uil een valk te zijn, Karel van Mander (I), Franco Estius, 1590 - 1594 | Een man zit op de grond en kijkt door zijn bril naar de uil op zijn hand (en denkt een valk te zien). Achter hem twee narren met elk een marot (narrestaf) in de hand. Het spreekwoord beeld de gedachte uit dat iedereen denkt zelf het beste te hebben of te zijn. Onder de voorstelling een verklarend Latijns vers van Franco Estius en een Nederlands tekst in boekdruk.",,3.55081E+17,https://www.pinterest.com/dr_marceloguerr/museums-rijksmuseum-amsterdan/,"Museums: Rijksmuseum, Amsterdan",1,0,,,,,,,,,,,,,,,,
3.55081E+17,Loss of Faith | Jan Toorop | 1894 | Rijksmuseum | Public Domain,,3.55081E+17,https://www.pinterest.com/dr_marceloguerr/museums-rijksmuseum-amsterdan/,"Museums: Rijksmuseum, Amsterdan",0,0,,,,,,,,,,,,,,,,
3.55081E+17,"Jan Toorop | Studie van een knie, Jan Toorop, 1868 - 1928 |",,3.55081E+17,https://www.pinterest.com/dr_marceloguerr/museums-rijksmuseum-amsterdan/,"Museums: Rijksmuseum, Amsterdan",0,0,,,,,,,,,,,,,,,,
3.55081E+17,Margu√©rite | Jan Toorop | 1868 - 1928 | Rijksmuseum | Public Domain,,3.55081E+17,https://www.pinterest.com/dr_marceloguerr/museums-rijksmuseum-amsterdan/,"Museums: Rijksmuseum, Amsterdan",0,0,,,,,,,,,,,,,,,,
3.55081E+17,"Portrait of Nurse Nelly, Jan Toorop, 1894, Rijksmuseum",,3.55081E+17,https://www.pinterest.com/dr_marceloguerr/museums-rijksmuseum-amsterdan/,"Museums: Rijksmuseum, Amsterdan",0,0,,,,,,,,,,,,,,,,
3.55081E+17,"Jan Toorop | Studieblad met arm en hand, Jan Toorop, c. 1868 - c. 1928 |",,3.55081E+17,https://www.pinterest.com/dr_marceloguerr/museums-rijksmuseum-amsterdan/,"Museums: Rijksmuseum, Amsterdan",0,0,,,,,,,,,,,,,,,,
3.55081E+17,"Jan Toorop | Toren van het stadhuis te Veere, Jan Toorop, 1868 - 1928 |",,3.55081E+17,https://www.pinterest.com/dr_marceloguerr/museums-rijksmuseum-amsterdan/,"Museums: Rijksmuseum, Amsterdan",0,0,,,,,,,,,,,,,,,,
3.55081E+17,"Jan Toorop - Portret van mevrouw Marie Jeannette de Lange (1865-1923), echtgenote van Jan Bouman, Jan Toorop, 1900. Rijksmuseum, Amsterdam.",,3.55081E+17,https://www.pinterest.com/dr_marceloguerr/museums-rijksmuseum-amsterdan/,"Museums: Rijksmuseum, Amsterdan",0,0,,,,,,,,,,,,,,,,
3.55081E+17,"Portret van Albrecht D√ºrer, Wenceslaus Hollar, 1645",,3.55081E+17,https://www.pinterest.com/dr_marceloguerr/museums-rijksmuseum-amsterdan/,"Museums: Rijksmuseum, Amsterdan",1,0,,,,,,,,,,,,,,,,
3.55081E+17,"Winterlandschap met schaatsers, Hendrick Avercamp, ca. 1608 - Mijn perspectief op kunst -Verzameld werk van Laura Villerius - Alle Rijksstudio's - Rijksstudio - Rijksmuseum",,3.55081E+17,https://www.pinterest.com/dr_marceloguerr/museums-rijksmuseum-amsterdan/,"Museums: Rijksmuseum, Amsterdan",0,0,,,,,,,,,,,,,,,,
3.55081E+17,"Hendrick Avercamp, View on ice with hunter, showing an otter. circa 1625-1630 (1595-1634) Rijksmuseum Amsterdam",,3.55081E+17,https://www.pinterest.com/dr_marceloguerr/museums-rijksmuseum-amsterdan/,"Museums: Rijksmuseum, Amsterdan",0,0,,,,,,,,,,,,,,,,
3.55081E+17,"Gerard de Lairesse | Italian Landscape with Shepherd and Shepherdess, Gerard de Lairesse, Johannes Glauber, c. 1687 | Italiaans landschap met op de voorgrond een minnekozend herderspaar en hoge bomen. Rechts op de achtergrond meer stoeiende herders en herderinnen bij een obelisk. Onderdeel van een reeks van vier schilderingen (SK-A-4213/4216) voor het huis van Jacob de Flines aan de Herengracht te Amsterdam.",,3.55081E+17,https://www.pinterest.com/dr_marceloguerr/museums-rijksmuseum-amsterdan/,"Museums: Rijksmuseum, Amsterdan",1,0,,,,,,,,,,,,,,,,
3.55081E+17,"Gerard de Lairesse | Ongeloof van Tomas, Gerard de Lairesse, 1670 | Bijbelse voorstelling uit Joh. 20:24-31. Christus is aan de apostel Tomas verschenen en laat hem de wond in zijn zij aanraken. Tomas zit met een boek geknield voor Christus, op de achtergrond kijken twee andere apostelen verwonderd toe.",,3.55081E+17,https://www.pinterest.com/dr_marceloguerr/museums-rijksmuseum-amsterdan/,"Museums: Rijksmuseum, Amsterdan",1,0,,,,,,,,,,,,,,,,
3.55081E+17,"Italian Landscape with three Women Making Music, Gerard de Lairesse, Johannes Glauber, c. 1687",,3.55081E+17,https://www.pinterest.com/dr_marceloguerr/museums-rijksmuseum-amsterdan/,"Museums: Rijksmuseum, Amsterdan",1,0,,,,,,,,,,,,,,,,
3.55081E+17,"#ENSCHEDE #RijksmuseumTwenthe   Ruim drie eeuwen lang bleven ze verborgen, in de Amsterdamse #Westerkerk, op 12 meter hoogte, nu stralen de ""Engelenvleugels"" van Gerard de Lairesse in Rijksmuseum Twenthe.   Twee orgelluiken, elk zo groot als de Nachtwacht, maar dan op zijn kant. Eindelijk! De Lairesse. Nu in Enschede!",,3.55081E+17,https://www.pinterest.com/dr_marceloguerr/museums-rijksmuseum-amsterdan/,"Museums: Rijksmuseum, Amsterdan",0,0,,,,,,,,,,,,,,,,
3.55081E+17,Bacchus and Ariadne - Gerard de Lairesse (1680) @rijksmuseum,,3.55081E+17,https://www.pinterest.com/dr_marceloguerr/museums-rijksmuseum-amsterdan/,"Museums: Rijksmuseum, Amsterdan",1,0,,,,,,,,,,,,,,,,
3.55081E+17,"Gerard de Lairesse | Jupiter en Antiope, Gerard de Lairesse, Abraham Bloteling, 1675 - 1685 | In een landschap onder een baldakijn omhelst Jupiter, in de gedaante van een sater, de slapende Antiope. Op de achtergrond de maansikkel.",,3.55081E+17,https://www.pinterest.com/dr_marceloguerr/museums-rijksmuseum-amsterdan/,"Museums: Rijksmuseum, Amsterdan",2,0,,,,,,,,,,,,,,,,
3.55081E+17,"Pieter Schenk (I) | Zelfportret van Gerard de Lairesse, Pieter Schenk (I), 1670 - 1713 | De Luikse prentmaker en schilder Gerard de Lairesse met in de hand een penseel en een palet. Op de achtergrond twee sculpturen.",,3.55081E+17,https://www.pinterest.com/dr_marceloguerr/museums-rijksmuseum-amsterdan/,"Museums: Rijksmuseum, Amsterdan",1,0,,,,,,,,,,,,,,,,
3.55081E+17,"Jan Caspar Philips | Portret van Gerard de Lairesse, Jan Caspar Philips, Johannes Marshoorn, 1736 - 1775 | Portret van de kunstenaar Gerard de Lairesse. In een kader een vierregelig lofdicht in het Nederlands.",,3.55081E+17,https://www.pinterest.com/dr_marceloguerr/museums-rijksmuseum-amsterdan/,"Museums: Rijksmuseum, Amsterdan",0,0,,,,,,,,,,,,,,,,
3.55081E+17,"Gerard de Lairesse | Jonge sater met een fakkel, Gerard de Lairesse, 1670 - 1680 |",,3.55081E+17,https://www.pinterest.com/dr_marceloguerr/museums-rijksmuseum-amsterdan/,"Museums: Rijksmuseum, Amsterdan",0,0,,,,,,,,,,,,,,,,
4.71471E+17,"Allegory of the Catholic Faith  Johannes Vermeer  (Dutch, Delft 1632‚Äì1675 Delft)    Date:      ca. 1670‚Äì72  Medium:      Oil on canvas  Dimensions:      45 x 35 in. (114.3 x 88.9 cm)  Classification:      Paintings  Credit Line:      The Friedsam Collection, Bequest of Michael Friedsam, 1931  Accession Number:      32.100.18    This artwork is currently on display in Gallery 616",,4.71471E+17,https://www.pinterest.com/Innerlijk/rijksmuseum-amsterdam/,Rijksmuseum Amsterdam,0,0,,,,,,,,,,,,,,,,
4.71471E+17,"Vermeer, The Little Street. Rijksmuseum. My favorite... you could step into the street and touch the bricks and feel the breeze",,4.71471E+17,https://www.pinterest.com/Innerlijk/rijksmuseum-amsterdam/,Rijksmuseum Amsterdam,2,0,,,,,,,,,,,,,,,,
4.71471E+17,"Johannes Vermeer De liefdesbrieven ca 1669/70  Schip op schilderij toestand van de zee ,de wandelaar op het schilderij, brief, muziekinstrument en vorm, partituren ,muiltjes. Stoffer tegen de deur ?",,4.71471E+17,https://www.pinterest.com/Innerlijk/rijksmuseum-amsterdam/,Rijksmuseum Amsterdam,0,0,Johannes Vermeer - Love Letter at Rijksmuseum Amsterdam,Flickr,"Johannes Vermeer - Love Letter, 1670 at Rijksmuseum Amsterdam 	 	Listed in the book of  ""50 Paintings You Should Know""  	 	Also viewed at 2017 Vermeer and the Masters Exhibit at National Gallery of Art - Washington DC",,,,,,,,,,http://www.flickr.com/photos/mbell1975/5283921641/,Jan Vermeer - Love Letter at Rijksmuseum Amsterdam,http://www.flickr.com/photos/mbell1975/,mbell1975
4.71471E+17,"Het melkmeisje, Johannes Vermeer, ca. 1660",,4.71471E+17,https://www.pinterest.com/Innerlijk/rijksmuseum-amsterdam/,Rijksmuseum Amsterdam,0,0,,,,,,,,,,,,,,,,
4.71471E+17,Rijksmuseum Amsterdam  | De Nachtwacht,,4.71471E+17,https://www.pinterest.com/Innerlijk/rijksmuseum-amsterdam/,Rijksmuseum Amsterdam,0,0,,,,,,,,,,,,,,,,
4.71471E+17,De Nachtwacht in het Rijksmuseum Amsterdam. <3,,4.71471E+17,https://www.pinterest.com/Innerlijk/rijksmuseum-amsterdam/,Rijksmuseum Amsterdam,0,0,,,,,,,,,,,,,,,,
4.71471E+17,Prachtige foto: met een exploderende oranje waas wordt de kunsttempel die het Rijksmuseum is officieel geopend.,,4.71471E+17,https://www.pinterest.com/Innerlijk/rijksmuseum-amsterdam/,Rijksmuseum Amsterdam,0,0,,,,,,,,,,,,,,,,
4.71471E+17,Rijksmuseum - photo by Iwan Baan,,4.71471E+17,https://www.pinterest.com/Innerlijk/rijksmuseum-amsterdam/,Rijksmuseum Amsterdam,0,0,,,,Rijksmuseum,Museumstraat 1,Noord-Holland,Nederland,Amsterdam,52.36007765,4.885158329,https://foursquare.com/v/rijksmuseum/4a270706f964a520bd8c1fe3,1071 XX,,,,
4.71471E+17,"Gallery of Honour, 2013. Photo: Iwan Baan",,4.71471E+17,https://www.pinterest.com/Innerlijk/rijksmuseum-amsterdam/,Rijksmuseum Amsterdam,0,0,,,,,,,,,,,,,,,,
4.71471E+17,"Cruz y Ortiz > New Rijksmuseum, Amsterdam",,4.71471E+17,https://www.pinterest.com/Innerlijk/rijksmuseum-amsterdam/,Rijksmuseum Amsterdam,0,0,,,,,,,,,,,,,,,,
4.71471E+17,Rijksmuseum,,4.71471E+17,https://www.pinterest.com/Innerlijk/rijksmuseum-amsterdam/,Rijksmuseum Amsterdam,1,0,,,,,,,,,,,,,,,,
4.71471E+17,"Rijksmuseum (in it's full glory), one of the most beautiful museums i have seen.",,4.71471E+17,https://www.pinterest.com/Innerlijk/rijksmuseum-amsterdam/,Rijksmuseum Amsterdam,0,0,,,,Rijksmuseum,Museumstraat 1,Noord-Holland,Nederland,Amsterdam,52.36007765,4.885158329,https://foursquare.com/v/rijksmuseum/4a270706f964a520bd8c1fe3,1071 XX,,,,
4.71471E+17,Rijksmuseum Amsterdam,,4.71471E+17,https://www.pinterest.com/Innerlijk/rijksmuseum-amsterdam/,Rijksmuseum Amsterdam,0,0,,,,,,,,,,,,,,,,
4.71471E+17,The Rijksmuseum Research Library in Amsterdam.,,4.71471E+17,https://www.pinterest.com/Innerlijk/rijksmuseum-amsterdam/,Rijksmuseum Amsterdam,0,0,thisivyhouse,Ì†ºÌºû This Ivy House Ì†ºÌºó,thirdman000: ‚Äú The Rijksmuseum Research Library in Amsterdam. ‚Äù,,,,,,,,,,,,,
4.71471E+17,"Rijksmuseum Garden, Amsterdam, Netherlands",,4.71471E+17,https://www.pinterest.com/Innerlijk/rijksmuseum-amsterdam/,Rijksmuseum Amsterdam,0,0,Rijksmuseum Garden @ Amsterdam,Flickr,"¬© All Rights Reserved, Krebs Sebastien 	_____ 	 	The front entrance was closed for renovation so we had to use the back entrance through the garden... What a shame... :-) 	 	The museum was founded in 1800 in The Hague to exhibit the collections of the Dutch stadtholders. It was inspired by French example. By then it was known as the National Art Gallery (Dutch: Nationale Kunst-Gallerij). In 1808 the museum moved to Amsterdam on the orders of king Louis Bonaparte, brother of Napoleon Bonaparte. The paintings owned by that city, such as The Night Watch by Rembrandt, became part of the collection. 	 	en.wikipedia.org/wiki/Rijksmuseum_Amsterdam 	 	!!! Happy Monday !!! 	____________ 	- 1/250s, f/8, ISO200, 10mm 	- 3xp HDR (¬±2ev) tone mapped in DPHDR 	- Post-processed in Photoshop",Rijksmuseum,Museumstraat 1,Noord-Holland,Nederland,Amsterdam,52.36007765,4.885158329,https://foursquare.com/v/rijksmuseum/4a270706f964a520bd8c1fe3,1071 XX,,,,
4.71471E+17,"President Barack Obama visiting the Rijksmuseum, Amsterdam. (24-03-2014) #greetingsfromnl",,4.71471E+17,https://www.pinterest.com/Innerlijk/rijksmuseum-amsterdam/,Rijksmuseum Amsterdam,2,0,,,,Rijksmuseum,Museumstraat 1,Noord-Holland,Nederland,Amsterdam,52.36007765,4.885158329,https://foursquare.com/v/rijksmuseum/4a270706f964a520bd8c1fe3,1071 XX,,,,
4.3326E+17,Legos doen de nachtwacht,,4.3326E+17,https://www.pinterest.com/bcn69/rijksmuseum-amsterdam/,Rijksmuseum Amsterdam,0,0,,,,,,,,,,,,,,,,
4.3326E+17,Lego minifigures de nachtwacht,,4.3326E+17,https://www.pinterest.com/bcn69/rijksmuseum-amsterdam/,Rijksmuseum Amsterdam,0,0,,,,,,,,,,,,,,,,
4.3326E+17,Lego minifigures de nachtwacht,,4.3326E+17,https://www.pinterest.com/bcn69/rijksmuseum-amsterdam/,Rijksmuseum Amsterdam,0,0,,,,,,,,,,,,,,,,
4.3326E+17,Legos doen de nachtwacht,,4.3326E+17,https://www.pinterest.com/bcn69/rijksmuseum-amsterdam/,Rijksmuseum Amsterdam,0,0,,,,,,,,,,,,,,,,
4.3326E+17,Rijksmuseum  detail tabletop,,4.3326E+17,https://www.pinterest.com/bcn69/rijksmuseum-amsterdam/,Rijksmuseum Amsterdam,1,0,,,,,,,,,,,,,,,,
4.3326E+17,Rijksmuseum  furniture,,4.3326E+17,https://www.pinterest.com/bcn69/rijksmuseum-amsterdam/,Rijksmuseum Amsterdam,3,0,,,,,,,,,,,,,,,,
4.3326E+17,Rijksmuseum  furniture,,4.3326E+17,https://www.pinterest.com/bcn69/rijksmuseum-amsterdam/,Rijksmuseum Amsterdam,0,0,,,,,,,,,,,,,,,,
4.3326E+17,Rijksmueum  outside,,4.3326E+17,https://www.pinterest.com/bcn69/rijksmuseum-amsterdam/,Rijksmuseum Amsterdam,0,0,,,,,,,,,,,,,,,,
4.3326E+17,Rijksmuseum  outside,,4.3326E+17,https://www.pinterest.com/bcn69/rijksmuseum-amsterdam/,Rijksmuseum Amsterdam,0,0,,,,,,,,,,,,,,,,
4.3326E+17,Rijksmuseum  outside,,4.3326E+17,https://www.pinterest.com/bcn69/rijksmuseum-amsterdam/,Rijksmuseum Amsterdam,0,0,,,,,,,,,,,,,,,,
4.3326E+17,Rijksmuseum  outside,,4.3326E+17,https://www.pinterest.com/bcn69/rijksmuseum-amsterdam/,Rijksmuseum Amsterdam,0,0,,,,,,,,,,,,,,,,
4.3326E+17,Rijksmuseum  gold,,4.3326E+17,https://www.pinterest.com/bcn69/rijksmuseum-amsterdam/,Rijksmuseum Amsterdam,1,0,,,,,,,,,,,,,,,,
4.3326E+17,Rijksmuseum  glass,,4.3326E+17,https://www.pinterest.com/bcn69/rijksmuseum-amsterdam/,Rijksmuseum Amsterdam,2,0,,,,,,,,,,,,,,,,
4.3326E+17,Rijksmuseum  detail of the building,,4.3326E+17,https://www.pinterest.com/bcn69/rijksmuseum-amsterdam/,Rijksmuseum Amsterdam,0,0,,,,,,,,,,,,,,,,
4.3326E+17,Rijksmuseum   painting,,4.3326E+17,https://www.pinterest.com/bcn69/rijksmuseum-amsterdam/,Rijksmuseum Amsterdam,3,0,,,,,,,,,,,,,,,,
4.3326E+17,Rijksmuseum  painting,,4.3326E+17,https://www.pinterest.com/bcn69/rijksmuseum-amsterdam/,Rijksmuseum Amsterdam,1,0,,,,,,,,,,,,,,,,
4.3326E+17,Rijksmuseum  painting,,4.3326E+17,https://www.pinterest.com/bcn69/rijksmuseum-amsterdam/,Rijksmuseum Amsterdam,0,0,,,,,,,,,,,,,,,,
4.3326E+17,Rijksmuseum painting,,4.3326E+17,https://www.pinterest.com/bcn69/rijksmuseum-amsterdam/,Rijksmuseum Amsterdam,0,0,,,,,,,,,,,,,,,,
4.3326E+17,Rijksmuseum  furniture,,4.3326E+17,https://www.pinterest.com/bcn69/rijksmuseum-amsterdam/,Rijksmuseum Amsterdam,1,0,,,,,,,,,,,,,,,,
4.3326E+17,Rijksmuseum  furniture,,4.3326E+17,https://www.pinterest.com/bcn69/rijksmuseum-amsterdam/,Rijksmuseum Amsterdam,0,0,,,,,,,,,,,,,,,,
4.3326E+17,Rijksmuseum  painting,,4.3326E+17,https://www.pinterest.com/bcn69/rijksmuseum-amsterdam/,Rijksmuseum Amsterdam,1,0,,,,,,,,,,,,,,,,
4.3326E+17,Rijksmuseum  painting,,4.3326E+17,https://www.pinterest.com/bcn69/rijksmuseum-amsterdam/,Rijksmuseum Amsterdam,0,0,,,,,,,,,,,,,,,,
4.3326E+17,Rijksmuseum  furniture,,4.3326E+17,https://www.pinterest.com/bcn69/rijksmuseum-amsterdam/,Rijksmuseum Amsterdam,0,0,,,,,,,,,,,,,,,,
4.3326E+17,Rijksmuseum  painting,,4.3326E+17,https://www.pinterest.com/bcn69/rijksmuseum-amsterdam/,Rijksmuseum Amsterdam,1,0,,,,,,,,,,,,,,,,
4.3326E+17,Rijksmuseum detail of the building,,4.3326E+17,https://www.pinterest.com/bcn69/rijksmuseum-amsterdam/,Rijksmuseum Amsterdam,2,0,,,,,,,,,,,,,,,,
4.57889E+17,Gate,,4.5789E+17,https://www.pinterest.com/anzwartbol/g-a-r-d-e-n-rijksmuseum/,G A R D E N  RIJKSMUSEUM,0,0,,,,,,,,,,,,,,,,
4.57889E+17,Old telephonecell in the garden.....,,4.5789E+17,https://www.pinterest.com/anzwartbol/g-a-r-d-e-n-rijksmuseum/,G A R D E N  RIJKSMUSEUM,0,0,,,,,,,,,,,,,,,,
4.57889E+17,"Old gardenhouse, soon it will be a teahouse...",,4.5789E+17,https://www.pinterest.com/anzwartbol/g-a-r-d-e-n-rijksmuseum/,G A R D E N  RIJKSMUSEUM,2,0,,,,,,,,,,,,,,,,
4.57889E+17,..,,4.5789E+17,https://www.pinterest.com/anzwartbol/g-a-r-d-e-n-rijksmuseum/,G A R D E N  RIJKSMUSEUM,0,0,,,,,,,,,,,,,,,,
4.57889E+17,...,,4.5789E+17,https://www.pinterest.com/anzwartbol/g-a-r-d-e-n-rijksmuseum/,G A R D E N  RIJKSMUSEUM,0,0,,,,,,,,,,,,,,,,
4.57889E+17,Nachtwacht came into museum through brievenbus in the middle of the picture...,,4.5789E+17,https://www.pinterest.com/anzwartbol/g-a-r-d-e-n-rijksmuseum/,G A R D E N  RIJKSMUSEUM,0,0,,,,,,,,,,,,,,,,
4.57889E+17,"Part old church Edam, in Rijksmuseum-garden, collected by Cuypers himself!",,4.5789E+17,https://www.pinterest.com/anzwartbol/g-a-r-d-e-n-rijksmuseum/,G A R D E N  RIJKSMUSEUM,0,0,,,,,,,,,,,,,,,,
4.57889E+17,..,,4.5789E+17,https://www.pinterest.com/anzwartbol/g-a-r-d-e-n-rijksmuseum/,G A R D E N  RIJKSMUSEUM,0,0,,,,,,,,,,,,,,,,
4.57889E+17,..,,4.5789E+17,https://www.pinterest.com/anzwartbol/g-a-r-d-e-n-rijksmuseum/,G A R D E N  RIJKSMUSEUM,0,0,,,,,,,,,,,,,,,,
4.57889E+17,Chess in the garden...,,4.5789E+17,https://www.pinterest.com/anzwartbol/g-a-r-d-e-n-rijksmuseum/,G A R D E N  RIJKSMUSEUM,0,0,,,,,,,,,,,,,,,,
4.57889E+17,..,,4.5789E+17,https://www.pinterest.com/anzwartbol/g-a-r-d-e-n-rijksmuseum/,G A R D E N  RIJKSMUSEUM,0,0,,,,,,,,,,,,,,,,
4.57889E+17,..,,4.5789E+17,https://www.pinterest.com/anzwartbol/g-a-r-d-e-n-rijksmuseum/,G A R D E N  RIJKSMUSEUM,0,0,,,,,,,,,,,,,,,,
4.57889E+17,...,,4.5789E+17,https://www.pinterest.com/anzwartbol/g-a-r-d-e-n-rijksmuseum/,G A R D E N  RIJKSMUSEUM,0,0,,,,,,,,,,,,,,,,
4.57889E+17,.,,4.5789E+17,https://www.pinterest.com/anzwartbol/g-a-r-d-e-n-rijksmuseum/,G A R D E N  RIJKSMUSEUM,0,0,,,,,,,,,,,,,,,,
4.57889E+17,Hercules....,,4.5789E+17,https://www.pinterest.com/anzwartbol/g-a-r-d-e-n-rijksmuseum/,G A R D E N  RIJKSMUSEUM,0,0,,,,,,,,,,,,,,,,
4.57889E+17,.,,4.5789E+17,https://www.pinterest.com/anzwartbol/g-a-r-d-e-n-rijksmuseum/,G A R D E N  RIJKSMUSEUM,0,0,,,,,,,,,,,,,,,,
4.57889E+17,.,,4.5789E+17,https://www.pinterest.com/anzwartbol/g-a-r-d-e-n-rijksmuseum/,G A R D E N  RIJKSMUSEUM,0,0,,,,,,,,,,,,,,,,
4.57889E+17,.,,4.5789E+17,https://www.pinterest.com/anzwartbol/g-a-r-d-e-n-rijksmuseum/,G A R D E N  RIJKSMUSEUM,0,0,,,,,,,,,,,,,,,,
4.57889E+17,so much beauty,,4.5789E+17,https://www.pinterest.com/anzwartbol/g-a-r-d-e-n-rijksmuseum/,G A R D E N  RIJKSMUSEUM,0,0,,,,,,,,,,,,,,,,
4.57889E+17,.,,4.5789E+17,https://www.pinterest.com/anzwartbol/g-a-r-d-e-n-rijksmuseum/,G A R D E N  RIJKSMUSEUM,0,0,,,,,,,,,,,,,,,,
4.57889E+17,"Part of old gate, timpaan",,4.5789E+17,https://www.pinterest.com/anzwartbol/g-a-r-d-e-n-rijksmuseum/,G A R D E N  RIJKSMUSEUM,0,0,,,,,,,,,,,,,,,,
4.57889E+17,Gate,,4.5789E+17,https://www.pinterest.com/anzwartbol/g-a-r-d-e-n-rijksmuseum/,G A R D E N  RIJKSMUSEUM,0,0,,,,,,,,,,,,,,,,
4.57889E+17,.,,4.5789E+17,https://www.pinterest.com/anzwartbol/g-a-r-d-e-n-rijksmuseum/,G A R D E N  RIJKSMUSEUM,0,0,,,,,,,,,,,,,,,,
4.57889E+17,.,,4.5789E+17,https://www.pinterest.com/anzwartbol/g-a-r-d-e-n-rijksmuseum/,G A R D E N  RIJKSMUSEUM,0,0,,,,,,,,,,,,,,,,
4.57889E+17,Greenhouse Rijks,,4.5789E+17,https://www.pinterest.com/anzwartbol/g-a-r-d-e-n-rijksmuseum/,G A R D E N  RIJKSMUSEUM,0,0,,,,,,,,,,,,,,,,
4.62886E+17,"Rijksmuseum temporary exhibition Amsterdam, NL",,4.62886E+17,https://www.pinterest.com/ruivarelanunes/rijksmuseum/,Rijksmuseum,0,0,,,,,,,,,,,,,,,,
4.62886E+17,"Rijksmuseum (in it's full glory), one of the most beautiful museums i have seen.",,4.62886E+17,https://www.pinterest.com/ruivarelanunes/rijksmuseum/,Rijksmuseum,0,0,,,,Rijksmuseum,Museumstraat 1,Noord-Holland,Nederland,Amsterdam,52.36007765,4.885158329,https://foursquare.com/v/rijksmuseum/4a270706f964a520bd8c1fe3,1071 XX,,,,
4.62886E+17,"THE RIJKSMUSEUM, AMSTERDAM ~ one of the world's great museums.",,4.62886E+17,https://www.pinterest.com/ruivarelanunes/rijksmuseum/,Rijksmuseum,1,0,,,,Museumplein,Museumplein,Noord-Holland,Nederland,Amsterdam,52.3574526,4.881491661,https://foursquare.com/v/museumplein/4a28509ef964a5200c951fe3,,,,,
4.62886E+17,"Nicolaes Eliaszoon Pickenoy Detail of Portrait of a Young Woman, 1632, oil on panel, The J. Paul Getty Museum, California.",,4.62886E+17,https://www.pinterest.com/ruivarelanunes/rijksmuseum/,Rijksmuseum,0,0,thegiftsoflife,thegiftsoflife.tumblr.com,langoaurelian: ‚Äú ‚ÄúRight Hand of Artemisia Gentileschi Holding a Brush.‚Äù ( Detail ) ~ Nicolaes Eliaszoon Pickenoy ‚Äù,,,,,,,,,,,,,
4.62886E+17,"William II, prince of Oranje (1626-1650), and his wife princes Maria Stuart (1631-1660), daughter of Charles I of Engeland, Anthony van Dyck, 1641. Rijksmuseum, Amsterdam.",,4.62886E+17,https://www.pinterest.com/ruivarelanunes/rijksmuseum/,Rijksmuseum,1,0,,,,,,,,,,,,,,,,
4.62886E+17,"Anonymous, Portrait of Josina Cornelisdr van Esch, 1632 - Rijksmuseum",,4.62886E+17,https://www.pinterest.com/ruivarelanunes/rijksmuseum/,Rijksmuseum,3,0,,,,,,,,,,,,,,,,
4.62886E+17,"Portret van een jonge vrouw, anoniem, 1775 - 1795",,4.62886E+17,https://www.pinterest.com/ruivarelanunes/rijksmuseum/,Rijksmuseum,0,0,,,,,,,,,,,,,,,,
4.62886E+17,"Anonymous, Portrait of Cornelia Cornelisdr van Esch, 1632 - Rijksmuseum Amsterdam",,4.62886E+17,https://www.pinterest.com/ruivarelanunes/rijksmuseum/,Rijksmuseum,6,0,,,,,,,,,,,,,,,,
4.62886E+17,"Boerenkermis, Cornelis Dusart, 1680 - 1704 - Rijksmuseum Amsterdam",,4.62886E+17,https://www.pinterest.com/ruivarelanunes/rijksmuseum/,Rijksmuseum,2,0,,,,,,,,,,,,,,,,
4.62886E+17,"Detail of:Portrait of a woman, possibly Maria Trip, by Rembrandt van Rijn, 1639. She was the daughter of a wealty Amsterdam merchant. Her dress is trimmed with white linen so fine, it is almost transparent. Rijksmuseum Amsterdam.",,4.62886E+17,https://www.pinterest.com/ruivarelanunes/rijksmuseum/,Rijksmuseum,2,0,,,,,,,,,,,,,,,,
4.62886E+17,"Rijksmuseum inspiration for Clara Apolit: The golden age knitting shirt. - The Love Letter, Johannes Vermeer, c. 1669 - c. 1670",,4.62886E+17,https://www.pinterest.com/ruivarelanunes/rijksmuseum/,Rijksmuseum,0,0,,,,,,,,,,,,,,,,
4.62886E+17,"Brieflezende vrouw, Johannes Vermeer, ca. 1663 - Johannes Vermeer - Kunstenaars - Ontdek de collectie - Rijksmuseum",,4.62886E+17,https://www.pinterest.com/ruivarelanunes/rijksmuseum/,Rijksmuseum,1,0,,,,,,,,,,,,,,,,
4.62886E+17, ,,4.62886E+17,https://www.pinterest.com/ruivarelanunes/rijksmuseum/,Rijksmuseum,1,0,thisblueboy,Blueboy's Journey with Art,"Jacob van Walscapelle (Dordrecht 1644-1727 Amsterdam), Floral Still Life, ca.1670-1727, Rijksmuseum Amsterdam",,,,,,,,,,,,,
4.62886E+17,"At first sight, this painting seems like a casual celebration of the good life. Wearing a lavish, possibly Italian costume, the man is leaning out of a window. He appears to be gesturing towards someone and proposing a toast. In fact, Dutch paintings like this often contain a moral: remember, there is more to life than just partying and drinking. Moderation! Gerard van Honthorst, 1623.",,4.62886E+17,https://www.pinterest.com/ruivarelanunes/rijksmuseum/,Rijksmuseum,0,0,,,,,,,,,,,,,,,,
4.62886E+17,Still Life - Rijksmuseum Amsterdam - Museum for Art and History,,4.62886E+17,https://www.pinterest.com/ruivarelanunes/rijksmuseum/,Rijksmuseum,0,0,,,,,,,,,,,,,,,,
4.62886E+17,"Detail (lace collar) from Portrait of a Woman, Possibly Maria Trip, Rembrandt Harmensz. van Rijn, 1639 - (Rembrandt Closer - Collected works of Glauce - Rijksstudio - Rijksmuseum)",,4.62886E+17,https://www.pinterest.com/ruivarelanunes/rijksmuseum/,Rijksmuseum,195,0,,,,,,,,,,,,,,,,
4.62886E+17,"President Barack Obama visiting the Rijksmuseum, Amsterdam. (24-03-2014) #greetingsfromnl",,4.62886E+17,https://www.pinterest.com/ruivarelanunes/rijksmuseum/,Rijksmuseum,0,0,,,,Rijksmuseum,Museumstraat 1,Noord-Holland,Nederland,Amsterdam,52.36007765,4.885158329,https://foursquare.com/v/rijksmuseum/4a270706f964a520bd8c1fe3,1071 XX,,,,
4.62886E+17,"Simon Willem Maris - Portrait of a Young Black Woman, Netherlands (1890s) Rijksmuseum, Amsterdam The Image of the ...",,4.62886E+17,https://www.pinterest.com/ruivarelanunes/rijksmuseum/,Rijksmuseum,0,0,medievalpoc,People of Color in European Art History,"1800s Week! Simon Willem Maris Portrait of a Young Black Woman Netherlands (1890s) 44 x 29 cm. Rijksmuseum, Amsterdam The Image of the Black in Western Art Research Project and Photo Archive, W.E.B....",,,,,,,,,,,,,
4.62886E+17,The Sower (Sower with Setting Sun) - Vincent van Gogh,,4.62886E+17,https://www.pinterest.com/ruivarelanunes/rijksmuseum/,Rijksmuseum,0,0,,,,,,,,,,,,,,,,
4.62886E+17,"While this ample bouquet appears quite natural, tulips, anemones, roses and carnations all have different seasons. Yet Bollongier combined them into a harmonious composition. This still life was painted following the financial collapse of 1637, when many lost their fortunes speculating in tulip bulbs. Perhaps this festive bouquet suggests the transience of worldly matters. Hans Bollongier, 1639.",,4.62886E+17,https://www.pinterest.com/ruivarelanunes/rijksmuseum/,Rijksmuseum,0,0,,,,,,,,,,,,,,,,
4.62886E+17,"9 hours ago MT @JohanOosterman: Luxuriant jewelry! Portrait of a Lady, detail. Moroni. Exhib. at @royalacademy Coll @rijksmuseum pic.twitter.com/1JVlbxyVr1",,4.62886E+17,https://www.pinterest.com/ruivarelanunes/rijksmuseum/,Rijksmuseum,0,0,LChase & SHScott (@2nerdyhistgirls) on Twitter,twitter.com,"The latest Tweets from LChase & SHScott (@2nerdyhistgirls). Bestselling authors Loretta Chase & Susan Holloway Scott gossip about history, writing, and, yes, shoes. Amateur historians, because we can't help it",,,,,,,,,,,,,
4.62886E+17,"Schijf van vijf: Emotioneel. Genieten van kunst en de mooi dingen uit het verleden. Stilleven met kazen, Floris Claesz. van Dijck, ca. 1615 3 jaar goal",,4.62886E+17,https://www.pinterest.com/ruivarelanunes/rijksmuseum/,Rijksmuseum,0,0,,,,,,,,,,,,,,,,
4.62886E+17,"Still Life with Flowers in a Glass Vase and Fruit (detail) by Jan Davidsz de Heem, ca.1665. Oil on panel",,4.62886E+17,https://www.pinterest.com/ruivarelanunes/rijksmuseum/,Rijksmuseum,0,0,c0ssette,c0ssette.tumblr.com,"Stilleven met bloemen in een glazen vaas, Jan Davidsz. de Heem,1650 - 1683 (detail)",,,,,,,,,,,,,
4.62886E+17,http://www.rijksmuseum.nl/images/aria/sk/z/sk-a-138.z%3Fleftcoulisse,,4.62886E+17,https://www.pinterest.com/ruivarelanunes/rijksmuseum/,Rijksmuseum,1,0,,,,,,,,,,,,,,,,
4.62886E+17,"Cornelis van Haarlem: The Fall of Man, 1592.",,4.62886E+17,https://www.pinterest.com/ruivarelanunes/rijksmuseum/,Rijksmuseum,2,0,,,,,,,,,,,,,,,,
3.04556E+17, ,,3.04556E+17,https://www.pinterest.com/bluekocha/b-rijksmuseum/,B ‚ô• rijksmuseum,0,0,,,,,,,,,,,,,,,,
3.04556E+17,,,3.04556E+17,https://www.pinterest.com/bluekocha/b-rijksmuseum/,B ‚ô• rijksmuseum,0,0,,,,,,,,,,,,,,,,
3.04556E+17, ,,3.04556E+17,https://www.pinterest.com/bluekocha/b-rijksmuseum/,B ‚ô• rijksmuseum,0,0,,,,,,,,,,,,,,,,
3.04556E+17, ,,3.04556E+17,https://www.pinterest.com/bluekocha/b-rijksmuseum/,B ‚ô• rijksmuseum,0,0,,,,,,,,,,,,,,,,
3.04556E+17, ,,3.04556E+17,https://www.pinterest.com/bluekocha/b-rijksmuseum/,B ‚ô• rijksmuseum,0,0,,,,,,,,,,,,,,,,
3.04556E+17, ,,3.04556E+17,https://www.pinterest.com/bluekocha/b-rijksmuseum/,B ‚ô• rijksmuseum,0,0,,,,,,,,,,,,,,,,
3.04556E+17, ,,3.04556E+17,https://www.pinterest.com/bluekocha/b-rijksmuseum/,B ‚ô• rijksmuseum,0,0,,,,,,,,,,,,,,,,
3.04556E+17, ,,3.04556E+17,https://www.pinterest.com/bluekocha/b-rijksmuseum/,B ‚ô• rijksmuseum,0,0,,,,,,,,,,,,,,,,
3.04556E+17, ,,3.04556E+17,https://www.pinterest.com/bluekocha/b-rijksmuseum/,B ‚ô• rijksmuseum,0,0,,,,,,,,,,,,,,,,
3.04556E+17, ,,3.04556E+17,https://www.pinterest.com/bluekocha/b-rijksmuseum/,B ‚ô• rijksmuseum,0,0,,,,,,,,,,,,,,,,
3.04556E+17, ,,3.04556E+17,https://www.pinterest.com/bluekocha/b-rijksmuseum/,B ‚ô• rijksmuseum,0,0,,,,,,,,,,,,,http://www.gettyimages.com/detail/news-photo/queen-beatrix-of-the-netherlands-sets-the-fireworks-and-news-photo/166496194,Rijksmuseum Opens After Extensive Reconstruction,http://www.gettyimages.com/detail/news-photo/queen-beatrix-of-the-netherlands-sets-the-fireworks-and-news-photo/166496194,Dean Mouhtaropoulos
3.04556E+17, ,,3.04556E+17,https://www.pinterest.com/bluekocha/b-rijksmuseum/,B ‚ô• rijksmuseum,0,0,,,,,,,,,,,,,,,,
3.04556E+17, ,,3.04556E+17,https://www.pinterest.com/bluekocha/b-rijksmuseum/,B ‚ô• rijksmuseum,0,0,,,,,,,,,,,,,,,,
3.04556E+17, ,,3.04556E+17,https://www.pinterest.com/bluekocha/b-rijksmuseum/,B ‚ô• rijksmuseum,0,0,,,,,,,,,,,,,,,,
3.04556E+17, ,,3.04556E+17,https://www.pinterest.com/bluekocha/b-rijksmuseum/,B ‚ô• rijksmuseum,0,0,,,,,,,,,,,,,,,,
3.04556E+17, ,,3.04556E+17,https://www.pinterest.com/bluekocha/b-rijksmuseum/,B ‚ô• rijksmuseum,0,0,,,,,,,,,,,,,,,,
3.04556E+17, ,,3.04556E+17,https://www.pinterest.com/bluekocha/b-rijksmuseum/,B ‚ô• rijksmuseum,0,0,,,,,,,,,,,,,,,,
3.04556E+17, ,,3.04556E+17,https://www.pinterest.com/bluekocha/b-rijksmuseum/,B ‚ô• rijksmuseum,0,0,,,,,,,,,,,,,,,,
3.04556E+17, ,,3.04556E+17,https://www.pinterest.com/bluekocha/b-rijksmuseum/,B ‚ô• rijksmuseum,0,0,,,,,,,,,,,,,,,,
3.04556E+17,EU VISUAL GUIDE : CNDSHK X GOPROTHAILAND,,3.04556E+17,https://www.pinterest.com/bluekocha/b-rijksmuseum/,B ‚ô• rijksmuseum,0,0,,,,,,,,,,,,,,,,
3.04556E+17,"Fietstunnel Rijksmuseum, Amsterdam, The Netherlands",,3.04556E+17,https://www.pinterest.com/bluekocha/b-rijksmuseum/,B ‚ô• rijksmuseum,0,0,,,,Rijksmuseum,Museumstraat 1,Noord-Holland,Nederland,Amsterdam,52.36007765,4.885158329,https://foursquare.com/v/rijksmuseum/4a270706f964a520bd8c1fe3,1071 XX,,,,
3.04556E+17,Restored with eye for every single tiny mind-blowing gorgeous detail: The brand new old Front Hall of the Rijksmuseum.,,3.04556E+17,https://www.pinterest.com/bluekocha/b-rijksmuseum/,B ‚ô• rijksmuseum,0,0,,,,,,,,,,,,,,,,
3.04556E+17,ixxi enlargement: the Milkmaid (Rijksmuseum Amsterdam). Image available in any size in the ixxi image bank.  #wallart #interior  $100.00,,3.04556E+17,https://www.pinterest.com/bluekocha/b-rijksmuseum/,B ‚ô• rijksmuseum,0,0,,,,,,,,,,,,,,,,
3.04556E+17,http://myBook.to/Rijksmuseum  #amsterdam #rijksmuseum,,3.04556E+17,https://www.pinterest.com/bluekocha/b-rijksmuseum/,B ‚ô• rijksmuseum,0,0,,,,,,,,,,,,,,,,
3.04556E+17,De nationale en internationale pers mag ...,,3.04556E+17,https://www.pinterest.com/bluekocha/b-rijksmuseum/,B ‚ô• rijksmuseum,0,0,,,,,,,,,,,,,,,,
5.31214E+17,Rembrandt.1633,,5.31214E+17,https://www.pinterest.com/livfem/rijksmuseum/,{} RIJKSMUSEUM {},0,0,,,,,,,,,,,,,,,,
5.31214E+17,Man with boy. Rembrandt 1643,,5.31214E+17,https://www.pinterest.com/livfem/rijksmuseum/,{} RIJKSMUSEUM {},0,0,,,,,,,,,,,,,,,,
5.31214E+17,"Rembrandt van Rijn, Portrait of Oopjen Coppit, 1634 Oil on canvas, 210 x 133 cm. Acquired by the French Republic for the Mus√©e du Louvre",,5.31214E+17,https://www.pinterest.com/livfem/rijksmuseum/,{} RIJKSMUSEUM {},1,0,,,,,,,,,,,,,,,,
5.31214E+17,"Self-Portrait, Rembrandt van Rijn, about 1629.",,5.31214E+17,https://www.pinterest.com/livfem/rijksmuseum/,{} RIJKSMUSEUM {},0,0,,,,,,,,,,,,,,,,
5.31214E+17,"Gezicht op de Gouden Bocht in de Herengracht vanuit het oosten, Gerrit Adriaensz. Berckheyde, 1685",,5.31214E+17,https://www.pinterest.com/livfem/rijksmuseum/,{} RIJKSMUSEUM {},0,0,,,,,,,,,,,,,,,,
5.31214E+17,"Portrait of a Woman Rembrandt (Rembrandt van Rijn) (Dutch, Leiden 1606‚Äì1669 Amsterdam)",,5.31214E+17,https://www.pinterest.com/livfem/rijksmuseum/,{} RIJKSMUSEUM {},0,0,,,,,,,,,,,,,,,,
5.31214E+17,Rembrandt - Portrait of Aechje Claesdr (detail),,5.31214E+17,https://www.pinterest.com/livfem/rijksmuseum/,{} RIJKSMUSEUM {},0,0,,,,,,,,,,,,,,,,
5.31214E+17,Johannes Vermeer (1632 - 1675),,5.31214E+17,https://www.pinterest.com/livfem/rijksmuseum/,{} RIJKSMUSEUM {},0,0,,,,,,,,,,,,,,,,
5.31214E+17,"Rembrandt van Rijn, Rembrandt‚Äôs Mother Reading, 1629",,5.31214E+17,https://www.pinterest.com/livfem/rijksmuseum/,{} RIJKSMUSEUM {},0,0,"Rembrandt van Rijn, Rembrandt‚Äôs Mother Reading, 1629",Flickr,Old Paint blog.,,,,,,,,,,http://www.flickr.com/photos/gatochy/3355963474/,"Rembrandt van Rijn, Rembrandt‚Äôs Mother Reading, 1629",http://www.flickr.com/photos/gatochy/,Gatochy
5.31214E+17,Van Gogh,,5.31214E+17,https://www.pinterest.com/livfem/rijksmuseum/,{} RIJKSMUSEUM {},2,0,,,,,,,,,,,,,,,,
5.31214E+17,The Girl with the Pearl Earring,,5.31214E+17,https://www.pinterest.com/livfem/rijksmuseum/,{} RIJKSMUSEUM {},0,0,,,,,,,,,,,,,,,,
5.31214E+17,Vermeers The Milkmaid / rijksmuseum,,5.31214E+17,https://www.pinterest.com/livfem/rijksmuseum/,{} RIJKSMUSEUM {},1,0,Rijksmuseum set for grand reopening,BBC News,"Inside Amsterdam's beautifully restored Rijksmuseum, which reopens to the public next week after 10 years.",,,,,,,,,,,,,
5.31214E+17,"Adriaen Coorte | Stilleven met asperges, 1697, Rijksmuseum, Amsterdam",,5.31214E+17,https://www.pinterest.com/livfem/rijksmuseum/,{} RIJKSMUSEUM {},0,0,,,,,,,,,,,,,,,,
5.31214E+17,Rijksmuseum,,5.31214E+17,https://www.pinterest.com/livfem/rijksmuseum/,{} RIJKSMUSEUM {},0,0,,,,,,,,,,,,,,,,
5.31214E+17,Rijksmuseum,,5.31214E+17,https://www.pinterest.com/livfem/rijksmuseum/,{} RIJKSMUSEUM {},0,0,,,,,,,,,,,,,,,,
5.31214E+17,rijksmuseum,,5.31214E+17,https://www.pinterest.com/livfem/rijksmuseum/,{} RIJKSMUSEUM {},0,1,,,,,,,,,,,,,,,,
5.31214E+17,Rijksmuseum - always nice to visit the museum in amsterdam,,5.31214E+17,https://www.pinterest.com/livfem/rijksmuseum/,{} RIJKSMUSEUM {},1,0,,,,Rijksmuseum,Museumstraat 1,Noord-Holland,Nederland,Amsterdam,52.36007765,4.885158329,https://foursquare.com/v/rijksmuseum/4a270706f964a520bd8c1fe3,1071 XX,,,,
5.31214E+17,"**Rijksmuseum, Amsterdam",,5.31214E+17,https://www.pinterest.com/livfem/rijksmuseum/,{} RIJKSMUSEUM {},0,0,,,,Museumplein,Museumplein,Noord-Holland,Nederland,Amsterdam,52.3574526,4.881491661,https://foursquare.com/v/museumplein/4a28509ef964a5200c951fe3,,,,,
5.31214E+17,Rijksmuseum Amsterdam,,5.31214E+17,https://www.pinterest.com/livfem/rijksmuseum/,{} RIJKSMUSEUM {},0,0,,,,,,,,,,,,,,,,
5.31214E+17,"Rijksmuseum, √Åmsterdam",,5.31214E+17,https://www.pinterest.com/livfem/rijksmuseum/,{} RIJKSMUSEUM {},0,0,Fotos: El renacer del Rijksmuseum,EL PA√çS,"La reforma del Rijksmuseum de √Åmsterdam ha durado 10 largos a√±os, pero finalmente ya est√° listo para reabrir sus puertas, el 13 de abril, y revelar una restauraci√≥n interior casi tan impresionante como la riqueza del arte que exhibe",,,,,,,,,,,,,
5.31214E+17,Rijksmuseum Amsterdam,,5.31214E+17,https://www.pinterest.com/livfem/rijksmuseum/,{} RIJKSMUSEUM {},0,0,,,,,,,,,,,,,,,,
5.31214E+17,The Rijks-Museum | Amsterdam,,5.31214E+17,https://www.pinterest.com/livfem/rijksmuseum/,{} RIJKSMUSEUM {},0,0,"[The Rijks-museum, Amsterdam, Holland] (LOC)",Flickr,"[The Rijks-museum, Amsterdam, Holland] 	 	[between ca. 1890 and ca. 1900]. 	 	1 photomechanical print : photochrom, color. 	 	Notes: 	 Title from the Detroit Publishing Co., catalogue J, foreign section. Detroit, Mich. : Detroit Publishing Company, c1905. 	Print no. ""6100"". 	Forms part of: Views of architecture and other sites in the Netherlands in the Photochrom print collection. 	 	Subjects: 	 Netherlands--Amsterdam. 	 	Format:  Photochrom prints--Color--1890-1900. 	 	Rights Info:  No known restrictions on reproduction. 	 	Repository:  Library of Congress, Prints and Photographs Division, Washington, D.C. 20540 USA 	 	Part Of:  Views of architecture and other sites in the Netherlands (DLC)  2001697995 	 	More information about the Photochrom Print Collection is available at hdl.loc.gov/loc.pnp/pp.pgz 	 	Persistent URL:   hdl.loc.gov/loc.pnp/ppmsc.05764 	 	Call Number:  LOT 13423, no. 005 [item]",,,,,,,,,,http://www.flickr.com/photos/library_of_congress/4119276779/,"[The Rijks-museum, Amsterdam, Holland] (LOC)",http://www.flickr.com/photos/library_of_congress/,The Library of Congress
5.31214E+17,Rijksmuseum,,5.31214E+17,https://www.pinterest.com/livfem/rijksmuseum/,{} RIJKSMUSEUM {},0,0,,,,,,,,,,,,,,,,
3.80836E+17,"Children of the Sea, Jozef IsraÔøΩls, 1872",,3.80836E+17,https://www.pinterest.com/pauljonij/rijksmuseum/,rijksmuseum,2,0,,,,,,,,,,,,,,,,
3.80836E+17,"Donkey Rides on the Beach, Isaac Israels, c. 1890 - c. 1901",,3.80836E+17,https://www.pinterest.com/pauljonij/rijksmuseum/,rijksmuseum,1,0,,,,,,,,,,,,,,,,
3.80836E+17,"Een meisje met bloemen in het gras, Jacob Maris, 1878",,3.80836E+17,https://www.pinterest.com/pauljonij/rijksmuseum/,rijksmuseum,1,0,,,,,,,,,,,,,,,,
3.80836E+17,"De leeuwendoder, Joannes Bemme, 1805",,3.80836E+17,https://www.pinterest.com/pauljonij/rijksmuseum/,rijksmuseum,0,0,,,,,,,,,,,,,,,,
3.80836E+17,"Fritz Henle, Rijks Museum, Amsterdam, 1960‚Äôs",,3.80836E+17,https://www.pinterest.com/pauljonij/rijksmuseum/,rijksmuseum,0,0,tamburina,tamburina,"Fritz Henle, Rijks Museum, Amsterdam, 1960‚Äôs",,,,,,,,,,,,,
3.80836E+17,"Kleine hoed van roze bandstro versierd met linten van zwarte gaze de lisse, zwarte fluwelen linten en een mosgroene bloem, P. Mars & Co., ca. 1870 - ca. 1875.",,3.80836E+17,https://www.pinterest.com/pauljonij/rijksmuseum/,rijksmuseum,0,0,,,,,,,,,,,,,,,,
3.80836E+17,"Middeleeuwse ketelhoed, anoniem, 1375.",,3.80836E+17,https://www.pinterest.com/pauljonij/rijksmuseum/,rijksmuseum,0,0,,,,,,,,,,,,,,,,
3.80836E+17,"Luifelhoed, anoniem, ca. 1815 - ca. 1820",,3.80836E+17,https://www.pinterest.com/pauljonij/rijksmuseum/,rijksmuseum,1,0,,,,,,,,,,,,,,,,
3.80836E+17,"Acht verschillende dameshoeden, Carl Cristiaan Fuchs, ca. 1802 - ca. 1855",,3.80836E+17,https://www.pinterest.com/pauljonij/rijksmuseum/,rijksmuseum,0,0,,,,,,,,,,,,,,,,
3.80836E+17,"The Night Watch, 2013. Photo: Iwan Baan",,3.80836E+17,https://www.pinterest.com/pauljonij/rijksmuseum/,rijksmuseum,0,0,,,,Rijksmuseum,Museumstraat 1,Noord-Holland,Nederland,Amsterdam,52.36007765,4.885158329,https://foursquare.com/v/rijksmuseum/4a270706f964a520bd8c1fe3,1071 XX,,,,
3.80836E+17,Cuypers Library. Photo: Iwan Baan.,,3.80836E+17,https://www.pinterest.com/pauljonij/rijksmuseum/,rijksmuseum,0,0,,,,Rijksmuseum,Museumstraat 1,Noord-Holland,Nederland,Amsterdam,52.36007765,4.885158329,https://foursquare.com/v/rijksmuseum/4a270706f964a520bd8c1fe3,1071 XX,,,,
3.80836E+17,17th Century Gallery. Photo Iwan Baan,,3.80836E+17,https://www.pinterest.com/pauljonij/rijksmuseum/,rijksmuseum,0,0,,,,,,,,,,,,,,,,
3.80836E+17,"Trouwjapon van lichtblauwe ripszijde geborduurd met een floraal motief in veelkleurige zijde, bestaande uit een lijf met 'staart' (a), rok (b) en sleep (c), anoniem, c. 1750 - c. 1760",,3.80836E+17,https://www.pinterest.com/pauljonij/rijksmuseum/,rijksmuseum,0,0,,,,,,,,,,,,,,,,
3.80836E+17,"Japon van citroengele ripszijde geborduurd met zijde met ranken en paarse bloemen, bestaande uit een overjapon (a), een tablier (b), een devant-de-gorge (c) en een losse metrage zijde (d), anoniem, c. 1760",,3.80836E+17,https://www.pinterest.com/pauljonij/rijksmuseum/,rijksmuseum,0,0,,,,,,,,,,,,,,,,
3.80836E+17,"De aanbidding van het kind, Cosimo Rosselli, 1485",,3.80836E+17,https://www.pinterest.com/pauljonij/rijksmuseum/,rijksmuseum,0,0,,,,,,,,,,,,,,,,
3.80836E+17,"Rijksmuseum, Amsterdam",,3.80836E+17,https://www.pinterest.com/pauljonij/rijksmuseum/,rijksmuseum,1,0,,,,,,,,,,,,,,,,
3.80836E+17,** Untitled ( Rijksmuseum Amsterdam),,3.80836E+17,https://www.pinterest.com/pauljonij/rijksmuseum/,rijksmuseum,0,0,Untitled,500px.com,La citta' puffa,,,,,,,,,,http://500px.com/photo/43052348,Untitled,http://500px.com/maxpi,Max Piccirilli
3.80836E+17,www.rijksmuseum.nl. Photo: Myra May.,,3.80836E+17,https://www.pinterest.com/pauljonij/rijksmuseum/,rijksmuseum,0,0,,,,,,,,,,,,,,,,
3.80836E+17,Rijksmuseum,,3.80836E+17,https://www.pinterest.com/pauljonij/rijksmuseum/,rijksmuseum,0,0,,,,,,,,,,,,,,,,
3.80836E+17,"Only 26 more nights until you can see all the masterpieces in the main building again. However, the joy the new museum brings comes with a certain sadness, as the Philips Wing closes today. For nearly 10 years, this wing housed our masterpieces and we had the privilege of welcoming many visitors in that time. Good news: e-ticket sales for the new museum starts this week!",,3.80836E+17,https://www.pinterest.com/pauljonij/rijksmuseum/,rijksmuseum,0,0,,,,,,,,,,,,,,,,
3.80836E+17,Rijksmuseum,,3.80836E+17,https://www.pinterest.com/pauljonij/rijksmuseum/,rijksmuseum,0,0,,,,Rijksmuseum,Museumstraat 1,Noord-Holland,Nederland,Amsterdam,52.36007765,4.885158329,https://foursquare.com/v/rijksmuseum/4a270706f964a520bd8c1fe3,1071 XX,,,,
3.80836E+17,The Rijksmuseum: Photo: John Lewis Marshall,,3.80836E+17,https://www.pinterest.com/pauljonij/rijksmuseum/,rijksmuseum,0,0,,,,Rijksmuseum,Museumstraat 1,Noord-Holland,Nederland,Amsterdam,52.36007765,4.885158329,https://foursquare.com/v/rijksmuseum/4a270706f964a520bd8c1fe3,1071 XX,,,,
3.80836E+17,"Preparations for the Rijksmuseum's 2013 opening are in full swing. Architectural firm Cruz y Ortiz, that is responsible for the redesign of the Rijksmuseum, has created a whole new pavilion for the dazzling collection of Asian art, which includes artworks and artefacts from India, Japan, China and Indonesia. Follow us on our way to reopening in 2013! www.rijksmuseum.nl/renovation. Photo: Arie de Leeuw",,3.80836E+17,https://www.pinterest.com/pauljonij/rijksmuseum/,rijksmuseum,0,0,,,,,,,,,,,,,,,,
3.80836E+17,Follow us on our way to reopening in 2013! www.rijksmuseum.nl. Photo: Arie de Leeuw.,,3.80836E+17,https://www.pinterest.com/pauljonij/rijksmuseum/,rijksmuseum,0,0,,,,,,,,,,,,,,,,
3.80836E+17,Follow us on our way to reopening in 2013! www.rijksmuseum.nl. Photo: Arie de Leeuw.,,3.80836E+17,https://www.pinterest.com/pauljonij/rijksmuseum/,rijksmuseum,0,0,,,,,,,,,,,,,,,,
2.89638E+17,"Still life - Stilleven, Bas Meeuws, 2012",,2.89638E+17,https://www.pinterest.com/moppiekroes/rijksmuseum/,Rijksmuseum,0,0,MASTERING DUTCH,Caitlin Owens,"Gathering inspiration from the color and density of the Dutch Masters' iconic floral paintings. Fantastical and hyper-realistic, these decadent beauties are just asking to be translated into wallpaper or a hipster's boxer briefs. Check out some of the beautiful reapproprations I came across during m",,,,,,,,,,,,,
2.89638E+17,Poppenmoeders Dollsmothers-Verzameld werk van yvonne klop - Alle Rijksstudio's - Rijksstudio - Rijksmuseum,,2.89638E+17,https://www.pinterest.com/moppiekroes/rijksmuseum/,Rijksmuseum,2,0,,,,,,,,,,,,,,,,
2.89638E+17,"jaded-mandarin:  Cornelis de Heem. Detail from Still-life with a Bouquet of Flowers, Cherries and a Clock, 17th Century.",,2.89638E+17,https://www.pinterest.com/moppiekroes/rijksmuseum/,Rijksmuseum,0,0,arthistoryfloral,fla≈≠ro.,"jaded-mandarin: ‚Äú Cornelis de Heem. Detail from Still-life with a Bouquet of Flowers, Cherries and a Clock, 17th Century. ‚Äù",,,,,,,,,,,,,
2.89638E+17,"Winterlandschap met huizen aan een vaart, Louis Apol, 1874 - Rijksmuseum",,2.89638E+17,https://www.pinterest.com/moppiekroes/rijksmuseum/,Rijksmuseum,1,0,,,,,,,,,,,,,,,,
2.89638E+17,Anton Mauve - OPENING THE GATE; Medium: watercolor and gouache on paper; Dimensions: 19.75 X 15.62 in (50.16 X 39.69 cm),,2.89638E+17,https://www.pinterest.com/moppiekroes/rijksmuseum/,Rijksmuseum,1,0,,,,,,,,,,,,,,,,
2.89638E+17,"Een meisje met bloemen in het gras, Jacob Maris, 1878 - SUR L'HERBE *;*-Verzameld werk van Claudette Delphis - Alle Rijksstudio's - Rijksstudio - Rijksmuseum",,2.89638E+17,https://www.pinterest.com/moppiekroes/rijksmuseum/,Rijksmuseum,0,0,,,,,,,,,,,,,,,,
2.89638E+17,"Stilleven met bloemen in een glazen vaas, Jan Davidsz. de Heem, 1650 - 1683 - tulp-Verzameld werk van Marlene - Alle Rijksstudio's - Rijksstudio - Rijksmuseum",,2.89638E+17,https://www.pinterest.com/moppiekroes/rijksmuseum/,Rijksmuseum,0,0,,,,,,,,,,,,,,,,
2.89638E+17,"Amandelbloesem Saint-R√©my-de-Provence, februari 1890 Vincent van Gogh (1853 - 1890) olieverf op doek, 73.3 cm x 92.4 cm Van Gogh Museum, Amsterdam (Vincent van Gogh Stichting)",,2.89638E+17,https://www.pinterest.com/moppiekroes/rijksmuseum/,Rijksmuseum,0,0,,,,,,,,,,,,,,,,
2.89638E+17,Willem Witsen. De Kromboomsloot te Amsterdam. 1919.,,2.89638E+17,https://www.pinterest.com/moppiekroes/rijksmuseum/,Rijksmuseum,0,0,,,,,,,,,,,,,,,,
2.89638E+17,Anton Mauve - Winterlandschap (Boerderij met vrouw en hond in de sneeuw),,2.89638E+17,https://www.pinterest.com/moppiekroes/rijksmuseum/,Rijksmuseum,0,0,,,,,,,,,,,,,,,,
2.89638E+17,Peach Tree in Bloom (in memory of Mauve)  - Vincent van Gogh 1888 Postkaart van aangeschaft.,,2.89638E+17,https://www.pinterest.com/moppiekroes/rijksmuseum/,Rijksmuseum,0,0,,,,,,,,,,,,,,,,
2.89638E+17,Jan van Huysum 'Still Life with Flowers and Fruit' (detail with tulip),,2.89638E+17,https://www.pinterest.com/moppiekroes/rijksmuseum/,Rijksmuseum,1,0,Jan van Huysum 'Still Life with Flowers and Fruit' (detail with tulip) c.1700-49 Oil on panel,Flickr,"Detail digitally restored . Original image: commons.wikimedia.org/wiki/File:Jan_van_Huysum_-_Stilleve... 	 	Jan van Huysum (also spelled Huijsum) [Dutch painter (1682- 1749]   	 	Cut flowers were prized luxuries in the 17th century. Only the most affluent could afford to have them in their homes and gardens. The average citizen simply could not afford a bouquet for home. The first flower still-lives therefore appeared in the 1630s and 1640s as a means of meeting the demand for flowers. After all, a painting of a flower was much less expensive than an actual bouquet and lasted longer. Flower still-lives stayed in vogue through the 19th century. 	 	Wikipedia: en.wikipedia.org/wiki/Jan_van_Huysum 	_________ 	 	Image restoration by plumleaves",,,,,,,,,,,,,
2.89638E+17,"Rijksmuseum, Paul J. C. Gabri√´l - In the Month of July",,2.89638E+17,https://www.pinterest.com/moppiekroes/rijksmuseum/,Rijksmuseum,0,0,,,,,,,,,,,,,,,,
2.89638E+17,Het Rijksmuseum brengt voor het eerst alle versies van Meisje in kimono door George Hendrik Breitner bij elkaar.,,2.89638E+17,https://www.pinterest.com/moppiekroes/rijksmuseum/,Rijksmuseum,0,0,,,,,,,,,,,,,,,,
2.89638E+17,"Segers - Bosweg, canvas op paneel, 16.1 x 22.7 cm, ca. 1618-20",,2.89638E+17,https://www.pinterest.com/moppiekroes/rijksmuseum/,Rijksmuseum,0,0,,,,,,,,,,,,,,,,
2.89638E+17,Rachel Ruys - Still Life with Flowers - 1716. Rijksmuseum Amsterdam - Museum for Art and History,,2.89638E+17,https://www.pinterest.com/moppiekroes/rijksmuseum/,Rijksmuseum,0,0,,,,,,,,,,,,,,,,
2.89638E+17,"Jan Steen - huishouden van Jan Steen? :) Zo noemde mijn moeder haar eigen huishouden wel eens. Kan zijn, maar het was altijd gezellig",,2.89638E+17,https://www.pinterest.com/moppiekroes/rijksmuseum/,Rijksmuseum,0,0,,,,,,,,,,,,,,,,
2.89638E+17,muurdecoratie wanddecoratie schilderij kunst rijksmuseum de bedreigde zwaan jan asselijn,,2.89638E+17,https://www.pinterest.com/moppiekroes/rijksmuseum/,Rijksmuseum,0,0,,,,,,,,,,,,,,,,
2.89638E+17,"George Hendrik BREITNER , 1857-1923] Geesje Kwak in Kimono, 1894 Olie op canvas Rijksmuseum, Amsterdam",,2.89638E+17,https://www.pinterest.com/moppiekroes/rijksmuseum/,Rijksmuseum,0,0,,,,,,,,,,,,,,,,
1.49534E+17,The new Rijksmuseum Atrium bathing in sunlight!,,1.49534E+17,https://www.pinterest.com/sloep/rijksmuseum/,Rijksmuseum,0,0,,,,,,,,,,,,,,,,
1.49534E+17,The Girl with the Pearl Earring by Johannes Vermeer c1665,,1.49534E+17,https://www.pinterest.com/sloep/rijksmuseum/,Rijksmuseum,0,0,,,,,,,,,,,,,,,,
1.49534E+17,"Girl in a White Kimono    George Hendrik Breitner, 1894",,1.49534E+17,https://www.pinterest.com/sloep/rijksmuseum/,Rijksmuseum,0,0,Girl in a White Kimono,Flickr,"George Hendrik Breitner,  1894.  	 	large view",,,,,,,,,,,,http://www.flickr.com/photos/marievonlosch/,
1.49534E+17,"Johannes Vermeer ""The Little street"", 1657-1658, Oil on canvas, 54.3 cm √ó 44 cm, in Rijksmuseum, Amsterdam",,1.49534E+17,https://www.pinterest.com/sloep/rijksmuseum/,Rijksmuseum,1,0,,,,,,,,,,,,,,,,
1.49534E+17,"Woman reading a letter, Johannes Vermeer, 1662. In a quiet, private moment, a young woman stands, engrossed in reading a letter. It is morning, and she is still wearing her blue nightrobe. All the other colours are subordinate to its radiant lapis lazuli; yellow and red hardly make an appearance. Vermeer rendered the different effects of the cool light precisely. For example, he was the first artist to try soft grey for flesh, and to paint the shadows on the wall light blue.",,1.49534E+17,https://www.pinterest.com/sloep/rijksmuseum/,Rijksmuseum,0,0,,,,,,,,,,,,,,,,
1.49534E+17,#postzegels @rijksmuseum #Rijksmuseum,,1.49534E+17,https://www.pinterest.com/sloep/rijksmuseum/,Rijksmuseum,0,0,,,,,,,,,,,,,,,,
1.49534E+17,Rijksmuseum,,1.49534E+17,https://www.pinterest.com/sloep/rijksmuseum/,Rijksmuseum,1,0,,,,,,,,,,,,,,,,
1.49534E+17,The Rijksmuseum,,1.49534E+17,https://www.pinterest.com/sloep/rijksmuseum/,Rijksmuseum,0,0,The Rijksmuseum,ghoti industries,"This was what I wanted to do for my birthday. On the three month anniversary of us arriving in Amsterdam we finally went to the Rijksmuseum. I have stood amongst, and seen paintings by Vermeer. Knowing from one of the art blogs I read that the ‚ÄúWoman in Blue Reading a Letter‚Äù has recently been‚Ä¶",,,,,,,,,,,,,
1.49534E+17,"As a Dominican monk, artist Fra Angelico was able to avoid the strict rules of the Florentine guilds. That allowed him to develop his own personal style: remarkably realistic, with big forms and a rather sweet quality derived from the older painting traditions of Siena and Florence. Madonna dell' humilta, Fra Angelico, 1440.",,1.49534E+17,https://www.pinterest.com/sloep/rijksmuseum/,Rijksmuseum,0,0,,,,,,,,,,,,,,,,
1.49534E+17,"Holland, Amsterdam, Rijksmuseum at Museumplein.",,1.49534E+17,https://www.pinterest.com/sloep/rijksmuseum/,Rijksmuseum,0,0,My Photos,Pinterest,Photos by Lisette Eppink,,,,,,,,,,,,,
1.49534E+17,"Jean-Etienne Liotard: Woman in a Turkish dress (1752-1754); Rijksmuseum, Amsterdam.",,1.49534E+17,https://www.pinterest.com/sloep/rijksmuseum/,Rijksmuseum,2,0,,,,,,,,,,,,,,,,
1.49534E+17,Rijksmuseum temple guardians,,1.49534E+17,https://www.pinterest.com/sloep/rijksmuseum/,Rijksmuseum,0,0,,,,,,,,,,,,,,,,
1.49534E+17,rijksmuseum,,1.49534E+17,https://www.pinterest.com/sloep/rijksmuseum/,Rijksmuseum,0,0,,,,,,,,,,,,,,,,
1.49534E+17,Rijksmuseum,,1.49534E+17,https://www.pinterest.com/sloep/rijksmuseum/,Rijksmuseum,1,0,,,,,,,,,,,,,,,,
1.49534E+17,"Jan Toorop | O grave, where is thy Victory | 1892 | Pencil and Chalk on Paper | 60.4 x 75.3 cm | Rijksmuseum, Amsterdam",,1.49534E+17,https://www.pinterest.com/sloep/rijksmuseum/,Rijksmuseum,0,0,,,,,,,,,,,,,,,,
1.49534E+17,"Delftsche Slaolie, Jan Toorop, 1894 - art nouveau - Rijksmuseum",,1.49534E+17,https://www.pinterest.com/sloep/rijksmuseum/,Rijksmuseum,0,0,,,,,,,,,,,,,,,,
5.54013E+17,Search - Rijksmuseum,,5.54013E+17,https://www.pinterest.com/clydegoz/rijksmuseum/,Rijksmuseum,0,0,,,,,,,,,,,,,,,,
5.54013E+17,"Paulus Potterstraat, back of the Rijksmuseum, Amsterdam",,5.54013E+17,https://www.pinterest.com/clydegoz/rijksmuseum/,Rijksmuseum,1,0,Many centuries apart,Flickr,Many centuries apart,Paulus Potterstraat,,,Nederland,,52.35843003,4.879698178,https://foursquare.com/v/paulus-potterstraat/4c5e17ee7735c9b6872c9172,,http://www.flickr.com/photos/february1972/5246405465/,Many centuries apart,http://www.flickr.com/photos/february1972/,A r l e t t e (reloaded)
5.54013E+17,"The Rijksmuseum Research Library in Amsterdam, Netherlands",,5.54013E+17,https://www.pinterest.com/clydegoz/rijksmuseum/,Rijksmuseum,4,0,The 30 Best Places To Be If You Love Books,BuzzFeed,"Mark Twain said, ""In a good bookroom you feel in some mysterious way that you are absorbing the wisdom contained in all the books through your skin, without even opening them."" Mark Twain would have lost his mind if he saw these places.",De Nachtwacht (De Nachwacht),Rijksmuseum,Noord-Holland,Nederland,Amsterdam,52.35990139,4.885195826,https://foursquare.com/v/de-nachtwacht/4d68f75ffd7ea35da30e9f4a,,,,,
5.54013E+17,Rijksmuseum Amsterdam,,5.54013E+17,https://www.pinterest.com/clydegoz/rijksmuseum/,Rijksmuseum,3,0,,,,,,,,,,,,,,,,
5.54013E+17,"Rijksmuseum, Amsterdam",,5.54013E+17,https://www.pinterest.com/clydegoz/rijksmuseum/,Rijksmuseum,0,0,Rijksmuseum,Flickr,Patinando frente al Rijksmuseum.,Rijksmuseum,Museumstraat 1,,Nederland,Amsterdam,52.35987694,4.885160923,https://foursquare.com/v/rijksmuseum/4a270706f964a520bd8c1fe3,1071 CJ,http://www.flickr.com/photos/julencin2000/2546046914/,Rijksmuseum,http://www.flickr.com/photos/julencin2000/,julencin2000
5.54013E+17,"Rijksmuseum Garden, Amsterdam, Netherlands",,5.54013E+17,https://www.pinterest.com/clydegoz/rijksmuseum/,Rijksmuseum,1,0,Rijksmuseum Garden @ Amsterdam,Flickr,"¬© All Rights Reserved, Krebs Sebastien 	_____ 	 	The front entrance was closed for renovation so we had to use the back entrance through the garden... What a shame... :-) 	 	The museum was founded in 1800 in The Hague to exhibit the collections of the Dutch stadtholders. It was inspired by French example. By then it was known as the National Art Gallery (Dutch: Nationale Kunst-Gallerij). In 1808 the museum moved to Amsterdam on the orders of king Louis Bonaparte, brother of Napoleon Bonaparte. The paintings owned by that city, such as The Night Watch by Rembrandt, became part of the collection. 	 	en.wikipedia.org/wiki/Rijksmuseum_Amsterdam 	 	!!! Happy Monday !!! 	____________ 	- 1/250s, f/8, ISO200, 10mm 	- 3xp HDR (¬±2ev) tone mapped in DPHDR 	- Post-processed in Photoshop",Rijksmuseum,Museumstraat 1,Noord-Holland,Nederland,Amsterdam,52.36007765,4.885158329,https://foursquare.com/v/rijksmuseum/4a270706f964a520bd8c1fe3,1071 XX,,,,
5.54013E+17,"Library, Rijksmuseum Amsterdam",,5.54013E+17,https://www.pinterest.com/clydegoz/rijksmuseum/,Rijksmuseum,1,0,opening rijksmuseum,Flickr,Explore Anna-Maria Giannattasio's photos on Flickr. Anna-Maria Giannattasio has uploaded 144163 photos to Flickr.,Rijksmuseum,Museumstraat 1,Noord-Holland,Nederland,Amsterdam,52.36007765,4.885158329,https://foursquare.com/v/rijksmuseum/4a270706f964a520bd8c1fe3,1071 XX,,,,
5.54013E+17,"Rijksmuseum, Amsterdam, The Netherlands",,5.54013E+17,https://www.pinterest.com/clydegoz/rijksmuseum/,Rijksmuseum,0,0,"Rijksmuseum, Amsterdam",Flickr,"With the huge ""I Amsterdam"" sign outside, covering in people. I love the water in this.",Magna Plaza,Nieuwezijds Voorburgwal 182,Noord-Holland,Nederland,Amsterdam,52.3737259,4.890321493,https://foursquare.com/v/magna-plaza/4b14d0b3f964a520c0a623e3,1012 SJ,http://www.flickr.com/photos/bishbash/7372547042/,"Rijksmuseum, Amsterdam",http://www.flickr.com/photos/bishbash/,MikeBish
5.54013E+17,bureau Reisner.jpg,,5.54013E+17,https://www.pinterest.com/clydegoz/rijksmuseum/,Rijksmuseum,0,0,,,,,,,,,,,,,,,,
5.54013E+17,"Dwerg met zwaard en wandelstok, Jacques Callot, 1621 - 1625 - Rijksmuseum",,5.54013E+17,https://www.pinterest.com/clydegoz/rijksmuseum/,Rijksmuseum,0,0,,,,,,,,,,,,,,,,
5.54013E+17,"Kerkelijk gebouw in Brazili√´, Frans Jansz. Post, 1675 - 1680",,5.54013E+17,https://www.pinterest.com/clydegoz/rijksmuseum/,Rijksmuseum,0,0,,,,,,,,,,,,,,,,
5.54013E+17,"Leeuw, Cornelis Saftleven, 1617 - 1681",,5.54013E+17,https://www.pinterest.com/clydegoz/rijksmuseum/,Rijksmuseum,2,0,,,,,,,,,,,,,,,,
5.54013E+17,"Congratulations to World Champion Germany! - Adelaar met jong, Jacques Callot, Fran√ßois Langlois, 1625 - 1629",,5.54013E+17,https://www.pinterest.com/clydegoz/rijksmuseum/,Rijksmuseum,0,0,,,,,,,,,,,,,,,,
5.54013E+17,"The lion is defeated‚Ä¶ Congrats to Argentina, well done Holland! - De leeuwendoder, Joannes Bemme, 1805",,5.54013E+17,https://www.pinterest.com/clydegoz/rijksmuseum/,Rijksmuseum,0,0,,,,,,,,,,,,,,,,
5.54013E+17,"Self Portrait with a Cap, openmouthed, 1630, Rembrandt Harmensz. van Rijn.",,5.54013E+17,https://www.pinterest.com/clydegoz/rijksmuseum/,Rijksmuseum,2,0,,,,,,,,,,,,,,,,
5.54013E+17,"Cone Shell (Conus marmoreus), 1650, Rembrandt Harmensz. van Rijn.",,5.54013E+17,https://www.pinterest.com/clydegoz/rijksmuseum/,Rijksmuseum,0,0,,,,,,,,,,,,,,,,
5.54013E+17,"Rembrandt drawing at a window, 1648, Rembrandt Harmensz. van Rijn.",,5.54013E+17,https://www.pinterest.com/clydegoz/rijksmuseum/,Rijksmuseum,1,0,,,,,,,,,,,,,,,,
5.54013E+17,"Portrait of Haesje van Cleyburgh, 1634, Rembrandt Harmensz. van Rijn. www.rijksmuseum.nl",,5.54013E+17,https://www.pinterest.com/clydegoz/rijksmuseum/,Rijksmuseum,0,0,,,,,,,,,,,,,,,,
5.54013E+17,"Musical Allegory, 1626, Rembrandt Harmensz. van Rijn. www.rijksmuseum.nl",,5.54013E+17,https://www.pinterest.com/clydegoz/rijksmuseum/,Rijksmuseum,0,0,,,,,,,,,,,,,,,,
5.54013E+17,"Self Portrait, c. 1628-29, Rembrandt Harmensz. van Rijn. www.rijksmuseum.nl",,5.54013E+17,https://www.pinterest.com/clydegoz/rijksmuseum/,Rijksmuseum,0,0,,,,,,,,,,,,,,,,
5.54013E+17,"Self Portrait, #Rembrandt Frowning (1630).    One of Rembrandt's earliest prints belongs to a series of etchings in which he portrayed himself with a range of extreme facial expressions. Here he has depicted himself in an angry mood. He appears to have turned his head with sudden violence, giving the picture a sense of spontaneity.     www.rijksmuseum.nl",,5.54013E+17,https://www.pinterest.com/clydegoz/rijksmuseum/,Rijksmuseum,0,0,,,,,,,,,,,,,,,,
5.54013E+17,"This street scene is one of the many genre drawings #Rembrandt sketched around 1645. With a few strokes he succeeded in establishing the architecture and framework for the composition. Two women are seated on the stoop of a house. The youngest is busy sewing as a child leans against her legs. Watching this tender scene is a third woman. Who these women are is no longer known, nor where the sketch was drawn. Clearly, however, #Rembrandt was drawing from life. www.rijksmuseum.nl",,5.54013E+17,https://www.pinterest.com/clydegoz/rijksmuseum/,Rijksmuseum,0,0,,,,,,,,,,,,,,,,
5.54013E+17,"The Night Watch, Rembrandt Harmensz. van Rijn, 1642.   Rembrandt‚Äôs largest, most famous canvas was made for the Arquebusiers guild hall. This was one of several halls of Amsterdam‚Äôs civic guard, the city‚Äôs militia and police.   Rembrandt was the first to paint figures in a group portrait actually doing something. Rembrandt used the light to focus on particular details, like the captain‚Äôs gesturing hand and the young girl in the foreground. She was the company mascot. www.rijksmuseum.nl",,5.54013E+17,https://www.pinterest.com/clydegoz/rijksmuseum/,Rijksmuseum,3,0,,,,,,,,,,,,,,,,
5.54013E+17,"Here, Rembrandt is about 55. In this portrait he represents St Paul, the apostle, identified by his usual attributes: a manuscript and a sword, of which the hilt extends from under the cloak.  The self portrait is typical of Rembrandt‚Äôs late style of painting: he used the paint structure in the composition, as in the folds of the turban for example.",,5.54013E+17,https://www.pinterest.com/clydegoz/rijksmuseum/,Rijksmuseum,0,0,,,,,,,,,,,,,,,,
5.54013E+17,"The Jewish bride, Rembrandt Harmensz. van Rijn, 1665.  It seems that Rembrandt painted his subjects as the biblical couple, Isaac and Rebecca. Its popular name, the Jewish Bride, is a later invention.  The portrait is painted with an extraordinarily free hand, as in the sleeve, where the paint is especially thick and shaped to reflect the light.",,5.54013E+17,https://www.pinterest.com/clydegoz/rijksmuseum/,Rijksmuseum,0,0,,,,,,,,,,,,,,,,
3.33126E+17,"Gerard R√∂ver, Merchant and Shipowner in Amsterdam, Nicolaes Maes, 1675 - 1693",,3.33126E+17,https://www.pinterest.com/stylinsci/rijksmuseumamsterdam-2/,"rijksmuseum,amsterdam /2",0,0,,,,,,,,,,,,,,,,
3.33126E+17,"La Bouillotte, Jean Fran√ßois Bosio, Anonymous, 1798",,3.33126E+17,https://www.pinterest.com/stylinsci/rijksmuseumamsterdam-2/,"rijksmuseum,amsterdam /2",2,0,,,,,,,,,,,,,,,,
3.33126E+17,"Hendrick ter Brugghen, Adoration of the Magi, 132.5 √ó 160.5 cm, 1619, Rijksmuseum",,3.33126E+17,https://www.pinterest.com/stylinsci/rijksmuseumamsterdam-2/,"rijksmuseum,amsterdam /2",0,0,Posts about 17th century on Rembrandt's Room,arthistoriesroom.wordpress.com,Posts about 17th century written by Maaike Dirkx,,,,,,,,,,,,,
3.33126E+17,"Ontzet van Wenen, 1529, Dirck Volckertsz Coornhert, 1555 - 1556",,3.33126E+17,https://www.pinterest.com/stylinsci/rijksmuseumamsterdam-2/,"rijksmuseum,amsterdam /2",1,0,,,,,,,,,,,,,,,,
3.33126E+17,"Karel V en Ferdinand I, attributed to Monogrammist CB met boom, 1513 - 1553",,3.33126E+17,https://www.pinterest.com/stylinsci/rijksmuseumamsterdam-2/,"rijksmuseum,amsterdam /2",0,0,,,,,,,,,,,,,,,,
3.33126E+17,De zes kinderen van Filips de Schone en Johanna van Castili√´,,3.33126E+17,https://www.pinterest.com/stylinsci/rijksmuseumamsterdam-2/,"rijksmuseum,amsterdam /2",0,0,,,,,,,,,,,,,,,,
3.33126E+17,De zes kinderen van Filips de Schone en Johanna van Castili√´,,3.33126E+17,https://www.pinterest.com/stylinsci/rijksmuseumamsterdam-2/,"rijksmuseum,amsterdam /2",0,0,,,,,,,,,,,,,,,,
3.33126E+17,"Karel V, Ferdinand I,Isabella, Eleonora, Catharina en Maria te paard, Nieu (landt) , Jan van, , 1521 - 1526",,3.33126E+17,https://www.pinterest.com/stylinsci/rijksmuseumamsterdam-2/,"rijksmuseum,amsterdam /2",1,0,,,,,,,,,,,,,,,,
3.33126E+17,johanna van castili√´ de waanzinnige,,3.33126E+17,https://www.pinterest.com/stylinsci/rijksmuseumamsterdam-2/,"rijksmuseum,amsterdam /2",0,0,,,,,,,,,,,,,,,,
3.33126E+17,"Of One Heart, Cornelis Kruseman, , 1830",,3.33126E+17,https://www.pinterest.com/stylinsci/rijksmuseumamsterdam-2/,"rijksmuseum,amsterdam /2",0,0,,,,,,,,,,,,,,,,
3.33126E+17,"Portrait of Anna van Buren, first wife of William of Orange Heliograph, 1895-1896, after a painting made c. 1555, attributed to Marcus Gheeraerts I",,3.33126E+17,https://www.pinterest.com/stylinsci/rijksmuseumamsterdam-2/,"rijksmuseum,amsterdam /2",0,0,,,,,,,,,,,,,,,,
3.33126E+17,"Jongeman achter schildersezel, Michael Sweerts, 1656",,3.33126E+17,https://www.pinterest.com/stylinsci/rijksmuseumamsterdam-2/,"rijksmuseum,amsterdam /2",2,0,,,,,,,,,,,,,,,,
3.33126E+17,"‚ÄúMadonna wiyh child‚Äù, 1526, Defendente Ferrari, Rijksmuseum, Amsterdam",,3.33126E+17,https://www.pinterest.com/stylinsci/rijksmuseumamsterdam-2/,"rijksmuseum,amsterdam /2",1,0,,,,,,,,,,,,,,,,
3.33126E+17,"1833 -Portrait of Alida Christina Assink by Jan Adam Kruseman, 1833. Collection Rijksmuseum.",,3.33126E+17,https://www.pinterest.com/stylinsci/rijksmuseumamsterdam-2/,"rijksmuseum,amsterdam /2",0,0,,,,,,,,,,,,,,,,
3.33126E+17,"Maria Magdalena, copy after Guido Reni, 1627 - 1720",,3.33126E+17,https://www.pinterest.com/stylinsci/rijksmuseumamsterdam-2/,"rijksmuseum,amsterdam /2",3,0,,,,,,,,,,,,,,,,
3.33126E+17,"Portret vam Anna van Lotharingen (1522-68), echtgenote van Ren√© de Ch√¢lon, prins van Oranje, mogelijk kopie naar Jan van Scorel, na 1542",,3.33126E+17,https://www.pinterest.com/stylinsci/rijksmuseumamsterdam-2/,"rijksmuseum,amsterdam /2",1,0,,,,,,,,,,,,,,,,
3.33126E+17,"Woonhuis op de Haarlemmerdijk te Amsterdam van Hendrik Busserus, Hendrik van Hilten, 1773",,3.33126E+17,https://www.pinterest.com/stylinsci/rijksmuseumamsterdam-2/,"rijksmuseum,amsterdam /2",0,0,,,,,,,,,,,,,,,,
3.33126E+17,"Maria Magdalena Stavenisse (1700-83). Echtgenote van Jacob de Witte van Elkerzee, raad van Zierikzee, Cornelis Troost, ca. 1726",,3.33126E+17,https://www.pinterest.com/stylinsci/rijksmuseumamsterdam-2/,"rijksmuseum,amsterdam /2",2,0,,,,,,,,,,,,,,,,
3.33126E+17,"Zelfportret, Cornelis Troost, 1739",,3.33126E+17,https://www.pinterest.com/stylinsci/rijksmuseumamsterdam-2/,"rijksmuseum,amsterdam /2",2,0,,,,,,,,,,,,,,,,
3.33126E+17,"Gezicht op Huis Honselaarsdijk, Jan van Call (I), 1694 - 1697",,3.33126E+17,https://www.pinterest.com/stylinsci/rijksmuseumamsterdam-2/,"rijksmuseum,amsterdam /2",3,0,,,,,,,,,,,,,,,,
3.33126E+17,"Doorbraak van de Rijn- en IJsseldijken, 1754, Simon Fokke, 1754",,3.33126E+17,https://www.pinterest.com/stylinsci/rijksmuseumamsterdam-2/,"rijksmuseum,amsterdam /2",0,0,,,,,,,,,,,,,,,,
3.33126E+17,"Vrouw wandelend in de nacht, Jan Luyken, Pieter Arentsz (II), 1687",,3.33126E+17,https://www.pinterest.com/stylinsci/rijksmuseumamsterdam-2/,"rijksmuseum,amsterdam /2",1,0,,,,,,,,,,,,,,,,
3.33126E+17,"De triktrakspelers, Willem Cornelisz. Duyster, ca. 1625",,3.33126E+17,https://www.pinterest.com/stylinsci/rijksmuseumamsterdam-2/,"rijksmuseum,amsterdam /2",1,0,,,,,,,,,,,,,,,,
3.33126E+17,"De muziekpartij, kopie naar Willem Cornelisz. Duyster, na 1700",,3.33126E+17,https://www.pinterest.com/stylinsci/rijksmuseumamsterdam-2/,"rijksmuseum,amsterdam /2",1,0,,,,,,,,,,,,,,,,
3.33126E+17,"De geesten van Malvina en Oscar, Anne Louis Girodet-Trioson, 1816",,3.33126E+17,https://www.pinterest.com/stylinsci/rijksmuseumamsterdam-2/,"rijksmuseum,amsterdam /2",3,0,,,,,,,,,,,,,,,,
3.33126E+17,"Vier musicerende vrouwen, Luca Giordano, 1658 - 1660",,3.33126E+17,https://www.pinterest.com/stylinsci/rijksmuseum-amsterdam/,"Rijksmuseum, Amsterdam",0,0,,,,,,,,,,,,,,,,
3.33126E+17,"The Love Letter, Willem Bartel van der Kooi, 1808",,3.33126E+17,https://www.pinterest.com/stylinsci/rijksmuseum-amsterdam/,"Rijksmuseum, Amsterdam",22,0,,,,,,,,,,,,,,,,
3.33126E+17,"Sculptuur van Highland Mary, door Brodie, tentoongesteld op de International Exhibition, Londen 1862, attributed to William England, 1862",,3.33126E+17,https://www.pinterest.com/stylinsci/rijksmuseum-amsterdam/,"Rijksmuseum, Amsterdam",1,0,,,,,,,,,,,,,,,,
3.33126E+17,"Vertumnus en Pomona, anoniem, S.t Ussans, 1660 - 1760",,3.33126E+17,https://www.pinterest.com/stylinsci/rijksmuseum-amsterdam/,"Rijksmuseum, Amsterdam",0,0,,,,,,,,,,,,,,,,
3.33126E+17,"Maria Apocalyptica, Mattheus van Beveren, ca. 1680 - ca. 1690",,3.33126E+17,https://www.pinterest.com/stylinsci/rijksmuseum-amsterdam/,"Rijksmuseum, Amsterdam",1,0,,,,,,,,,,,,,,,,
3.33126E+17,"Portret van Anna Paulowna Romanowa, Johann Nepomuk Gib√®le, James Hopwood (II), J.L. van Bever, 1816 - ca. 1830",,3.33126E+17,https://www.pinterest.com/stylinsci/rijksmuseum-amsterdam/,"Rijksmuseum, Amsterdam",8,0,,,,,,,,,,,,,,,,
3.33126E+17,"Het duet., Charles van Beveren, 1830 - 1850",,3.33126E+17,https://www.pinterest.com/stylinsci/rijksmuseum-amsterdam/,"Rijksmuseum, Amsterdam",2,0,,,,,,,,,,,,,,,,
3.33126E+17,"Het duet., Charles van Beveren, 1830 - 1850",,3.33126E+17,https://www.pinterest.com/stylinsci/rijksmuseum-amsterdam/,"Rijksmuseum, Amsterdam",1,0,,,,,,,,,,,,,,,,
3.33126E+17,"Gevelsteen van het Nieuwezijds Huiszittenhuis met een voorstelling van de uitdeling van brood, toegeschreven aan Albert Jansz. Vinckenbrinck, 1649 - 1650",,3.33126E+17,https://www.pinterest.com/stylinsci/rijksmuseum-amsterdam/,"Rijksmuseum, Amsterdam",1,0,,,,,,,,,,,,,,,,
3.33126E+17,"Gevelsteen van het Nieuwezijds Huiszittenhuis met een voorstelling van de inschrijving der bedeelden, toegeschreven aan Albert Jansz. Vinckenbrinck, 1649 - 1650",,3.33126E+17,https://www.pinterest.com/stylinsci/rijksmuseum-amsterdam/,"Rijksmuseum, Amsterdam",1,0,,,,,,,,,,,,,,,,
3.33126E+17,"Ruiter en voetknecht, Monogrammist AC (16e eeuw), Jakob Binck, 1520 - 1562",,3.33126E+17,https://www.pinterest.com/stylinsci/rijksmuseum-amsterdam/,"Rijksmuseum, Amsterdam",1,0,,,,,,,,,,,,,,,,
3.33126E+17,"Zelfportret met schedel en schaal, Jakob Binck, 1510 - 1569",,3.33126E+17,https://www.pinterest.com/stylinsci/rijksmuseum-amsterdam/,"Rijksmuseum, Amsterdam",0,0,,,,,,,,,,,,,,,,
3.33126E+17,"Christus en de Samaritaanse vrouw, Jakob Binck, 1510 - 1569",,3.33126E+17,https://www.pinterest.com/stylinsci/rijksmuseum-amsterdam/,"Rijksmuseum, Amsterdam",0,0,,,,,,,,,,,,,,,,
3.33126E+17,"Portret van de schilder Lucas Gassel, anoniem, Simon Kloeting, 1529 - 1609",,3.33126E+17,https://www.pinterest.com/stylinsci/rijksmuseum-amsterdam/,"Rijksmuseum, Amsterdam",1,0,,,,,,,,,,,,,,,,
3.33126E+17,"Hercules doodt de hydra van Lerna, Giovanni Jacopo Caraglio, Rosso Fiorentino, 1500 - 1570",,3.33126E+17,https://www.pinterest.com/stylinsci/rijksmuseum-amsterdam/,"Rijksmuseum, Amsterdam",1,0,,,,,,,,,,,,,,,,
3.33126E+17,"Bacchus en Erigone, Giovanni Jacopo Caraglio, Perino del Vaga, 1500 - 1570",,3.33126E+17,https://www.pinterest.com/stylinsci/rijksmuseum-amsterdam/,"Rijksmuseum, Amsterdam",1,0,,,,,,,,,,,,,,,,
3.33126E+17,"Vertumnus en Pomona, Giovanni Jacopo Caraglio, Perino del Vaga, 1500 - 1570",,3.33126E+17,https://www.pinterest.com/stylinsci/rijksmuseum-amsterdam/,"Rijksmuseum, Amsterdam",6,0,,,,,,,,,,,,,,,,
3.33126E+17,"Mars en Venus, Giovanni Jacopo Caraglio, Perino del Vaga, 1500 - 1570",,3.33126E+17,https://www.pinterest.com/stylinsci/rijksmuseum-amsterdam/,"Rijksmuseum, Amsterdam",12,0,,,,,,,,,,,,,,,,
3.33126E+17,"Een moeder die het haar van haar kind reinigt, bekend als ‚ÄòMoedertaak‚Äô, Pieter de Hooch, ca. 1658 - ca. 1660",,3.33126E+17,https://www.pinterest.com/stylinsci/rijksmuseum-amsterdam/,"Rijksmuseum, Amsterdam",0,0,,,,,,,,,,,,,,,,
3.33126E+17,"Een gezelschap op de plaats achter een huis, Pieter de Hooch, ca. 1663 - ca. 1665",,3.33126E+17,https://www.pinterest.com/stylinsci/rijksmuseum-amsterdam/,"Rijksmuseum, Amsterdam",3,0,,,,,,,,,,,,,,,,
3.33126E+17,"Het aanreiken van een brief in een voorhuis, Pieter de Hooch, 1670",,3.33126E+17,https://www.pinterest.com/stylinsci/rijksmuseum-amsterdam/,"Rijksmuseum, Amsterdam",4,0,,,,,,,,,,,,,,,,
3.33126E+17,"Zelfportret (?) van Constantijn Huygens de Jonge, mogelijk Constantijn Huygens (II), 1685",,3.33126E+17,https://www.pinterest.com/stylinsci/rijksmuseum-amsterdam/,"Rijksmuseum, Amsterdam",0,0,,,,,,,,,,,,,,,,
3.33126E+17,"David Leeuw met zijn gezin, Abraham van den Tempel, 1671",,3.33126E+17,https://www.pinterest.com/stylinsci/rijksmuseum-amsterdam/,"Rijksmuseum, Amsterdam",1,0,,,,,,,,,,,,,,,,
3.33126E+17,"Winterlandschap, Willem Maris, ca. 1875",,3.33126E+17,https://www.pinterest.com/stylinsci/rijksmuseum-amsterdam/,"Rijksmuseum, Amsterdam",1,0,,,,,,,,,,,,,,,,
3.33126E+17,"Ruiters in de sneeuw in het Haagse Bos, Anton Mauve, 1880",,3.33126E+17,https://www.pinterest.com/stylinsci/rijksmuseum-amsterdam/,"Rijksmuseum, Amsterdam",1,0,,,,,,,,,,,,,,,,
3.00052E+17,"Armchair upholstered with tapestry with floral bouquets, I. Gourdin, 1750",,3.00052E+17,https://www.pinterest.com/sanlif/museum-rijksmuseum/,Museum- Rijksmuseum,1,0,,,,,,,,,,,,,,,,
3.00052E+17,"Karel Dujardin: Self-portrait (1662); Rijksmuseum, Amsterdam",,3.00052E+17,https://www.pinterest.com/sanlif/museum-rijksmuseum/,Museum- Rijksmuseum,1,0,,,,,,,,,,,,,,,,
3.00052E+17,"Jean-Etienne Liotard    Woman in a Turkish dress    (1752-1754)    Rijksmuseum, Amsterdam.",,3.00052E+17,https://www.pinterest.com/sanlif/museum-rijksmuseum/,Museum- Rijksmuseum,0,0,a-l-ancien-regime,*Rococo Revisited,"Jean-Etienne Liotard Woman in a Turkish dress (1752-1754) Rijksmuseum, Amsterdam. An example of early orientalism. Jean-Etienne Liotard (1702 ‚Äì1789) was one of the most eccentric artists of his time....",,,,,,,,,,,,,
3.00052E+17,"Mary Magdalene by Carlo Crivelli, c. 1480 - 1495, Rijksmusem, Amsterdam",,3.00052E+17,https://www.pinterest.com/sanlif/museum-rijksmuseum/,Museum- Rijksmuseum,0,0,,,,,,,,,,,,,,,,
3.00052E+17,"Jan Davidsz. de Heem - Still life with flowers in a glass vase, 17th century - Netherlands. Large HD",,3.00052E+17,https://www.pinterest.com/sanlif/museum-rijksmuseum/,Museum- Rijksmuseum,2,0,I LOVE... still life paintings of flowers - | Yourlittleblackbook.me,| Yourlittleblackbook.me,Because‚Ä¶ they add colour to your home and it looks great on a plain white wall. I once spotted this huge print of an antique ‚ùØ‚ùØ,,,,,,,,,,,,,
3.00052E+17,"Portrait of Anna Boudaen Courten by Saloman Mesdach, 1619 the Netherlands, Rijksmuseum Amsterdam  I love the fabric",,3.00052E+17,https://www.pinterest.com/sanlif/museum-rijksmuseum/,Museum- Rijksmuseum,1,0,oldrags,Old Rags,"Portrait of Anna Boudaen Courten, attributed to Saloman Mesdach, 1619 the Netherlands, Rijksmuseum Amsterdam (Supposedly. It‚Äôs not in the museum‚Äôs online archives.) I love the fabric",,,,,,,,,,,,,
3.00052E+17,"De Nachtwacht by Rembrandt in the Rijksmuseum -  Amsterdam, The Netherlands",,3.00052E+17,https://www.pinterest.com/sanlif/museum-rijksmuseum/,Museum- Rijksmuseum,1,0,,,,Rijksmuseum,Museumstraat 1,Noord-Holland,Nederland,Amsterdam,52.36007765,4.885158329,https://foursquare.com/v/rijksmuseum/4a270706f964a520bd8c1fe3,1071 XX,,,,
3.00052E+17,Rijksmuseum,,3.00052E+17,https://www.pinterest.com/sanlif/museum-rijksmuseum/,Museum- Rijksmuseum,0,0,,,,,,,,,,,,,,,,
3.00052E+17,"Vermeer. Woman in Blue Reading a Letter, 1663. Rijksmuseum, Amsterdam",,3.00052E+17,https://www.pinterest.com/sanlif/museum-rijksmuseum/,Museum- Rijksmuseum,0,0,Johannes Vermeer,Flickr,"Woman in Blue Reading a Letter, 1663. Oil on canvas (1632‚Äì1675) Rijksmuseum, Amsterdam. Getty Center",,,,,,,,,,http://www.flickr.com/photos/rocor/8584221974/,Johannes Vermeer,http://www.flickr.com/photos/rocor/,rocor
3.00052E+17,"The Love Letter, 1670 by Jan Vermeer",,3.00052E+17,https://www.pinterest.com/sanlif/museum-rijksmuseum/,Museum- Rijksmuseum,2,0,Johannes Vermeer - Love Letter at Rijksmuseum Amsterdam,Flickr,"Johannes Vermeer - Love Letter, 1670 at Rijksmuseum Amsterdam 	 	Listed in the book of  ""50 Paintings You Should Know""  	 	Also viewed at 2017 Vermeer and the Masters Exhibit at National Gallery of Art - Washington DC",,,,,,,,,,http://www.flickr.com/photos/mbell1975/5283921641/,Jan Vermeer - Love Letter at Rijksmuseum Amsterdam,http://www.flickr.com/photos/mbell1975/,mbell1975
3.00052E+17,nachtwacht- rembrandt  in Amsterdam - breath-taking! Life-sized painting,,3.00052E+17,https://www.pinterest.com/sanlif/museum-rijksmuseum/,Museum- Rijksmuseum,1,0,,,,,,,,,,,,,,,,
3.00052E+17,"Rijksmuseum, Amsterdam",,3.00052E+17,https://www.pinterest.com/sanlif/museum-rijksmuseum/,Museum- Rijksmuseum,0,0,Rijksmuseum,Flickr,Patinando frente al Rijksmuseum.,Rijksmuseum,Museumstraat 1,,Nederland,Amsterdam,52.35987694,4.885160923,https://foursquare.com/v/rijksmuseum/4a270706f964a520bd8c1fe3,1071 CJ,http://www.flickr.com/photos/julencin2000/2546046914/,Rijksmuseum,http://www.flickr.com/photos/julencin2000/,julencin2000
